{"type":"FeatureCollection","features":[
{"type":"Feature","properties":{},"geometry":{"type":"Polygon","coordinates":[[[110.335,-66.468],[110.264,-66.537],[110.139,-66.562],[110.22,-66.596],[110.033,-66.643],[109.874,-66.589],[109.727,-66.59],[109.562,-66.65],[109.581,-66.727],[109.509,-66.739],[109.543,-66.764],[109.49,-66.815],[109.383,-66.824],[109.314,-66.896],[109.463,-66.909],[109.824,-66.834],[110.437,-66.621],[110.62,-66.512],[110.544,-66.492],[110.47,-66.518],[110.335,-66.468]]]}},
{"type":"Feature","properties":{},"geometry":{"type":"Polygon","coordinates":[[[-97.923,-72.117],[-97.78,-71.913],[-97.804,-71.893],[-98.147,-71.86],[-98.091,-71.912],[-98.176,-72.018],[-98.168,-72.123],[-97.923,-72.117]]]}},
{"type":"Feature","properties":{},"geometry":{"type":"Polygon","coordinates":[[[156.466,-68.967],[156.198,-68.953],[156.13,-68.998],[156.022,-68.995],[155.922,-69.068],[156.489,-69.183],[156.948,-69.177],[156.942,-69.103],[156.868,-69.102],[156.807,-69.147],[156.646,-69.119],[156.574,-69.055],[156.576,-69],[156.466,-68.967]]]}},
{"type":"Feature","properties":{},"geometry":{"type":"Polygon","coordinates":[[[-99.019,-71.89],[-99.153,-71.915],[-100.03,-71.893],[-99.833,-72.046],[-99.735,-72.033],[-99.563,-71.945],[-99.254,-71.972],[-99.082,-71.933],[-99.019,-71.89]]]}},
{"type":"Feature","properties":{},"geometry":{"type":"Polygon","coordinates":[[[-88.109,-72.842],[-88.194,-72.833],[-88.561,-73.121],[-88.419,-73.229],[-88.205,-73.22],[-87.936,-73.241],[-87.608,-73.195],[-87.401,-73.192],[-87.038,-73.354],[-86.791,-73.364],[-86.602,-73.354],[-85.981,-73.209],[-85.808,-73.193],[-85.762,-73.094],[-85.805,-73.046],[-86.415,-72.946],[-87.19,-72.909],[-87.399,-72.925],[-88.109,-72.842]]]}},
{"type":"Feature","properties":{},"geometry":{"type":"Polygon","coordinates":[[[122.362,-66.617],[122.102,-66.541],[121.776,-66.565],[121.525,-66.645],[121.254,-66.658],[121.142,-66.691],[121.139,-66.723],[121.194,-66.758],[121.174,-66.778],[120.892,-66.847],[120.83,-66.889],[120.729,-66.912],[120.524,-66.887],[120.49,-66.866],[120.279,-66.869],[120.107,-66.923],[119.72,-66.935],[119.5,-66.983],[119.419,-66.954],[118.921,-66.969],[118.691,-66.933],[118.282,-66.984],[118.075,-66.964],[117.416,-66.995],[117.064,-66.836],[116.911,-66.802],[116.773,-66.821],[116.621,-66.795],[116.609,-66.762],[116.672,-66.733],[116.522,-66.652],[116.386,-66.622],[116.37,-66.587],[116.271,-66.562],[116.145,-66.583],[115.904,-66.556],[115.726,-66.653],[115.442,-66.646],[115.635,-66.771],[115.442,-66.958],[115.274,-67.028],[114.571,-67.109],[113.991,-67.212],[113.912,-67.368],[114.027,-67.441],[114.319,-67.406],[114.658,-67.388],[115.172,-67.308],[115.384,-67.238],[115.885,-67.202],[116.509,-67.108],[116.713,-67.047],[116.924,-67.055],[117.132,-67.114],[117.745,-67.129],[117.952,-67.085],[118.139,-67.082],[118.519,-67.161],[118.714,-67.172],[118.965,-67.145],[119.768,-66.991],[120.187,-66.966],[120.375,-66.984],[119.281,-67.199],[118.922,-67.32],[119.133,-67.371],[120.4,-67.236],[120.979,-67.136],[121.488,-67.091],[122.183,-66.859],[122.576,-66.812],[122.558,-66.788],[122.607,-66.774],[122.585,-66.739],[122.523,-66.743],[122.362,-66.617]]]}},
{"type":"Feature","properties":{},"geometry":{"type":"Polygon","coordinates":[[[-97.242,-72.132],[-97.089,-71.944],[-96.979,-71.898],[-97.051,-71.88],[-97.551,-71.918],[-97.474,-72],[-97.582,-72.095],[-97.46,-72.188],[-97.345,-72.189],[-97.242,-72.132]]]}},
{"type":"Feature","properties":{},"geometry":{"type":"Polygon","coordinates":[[[-11.697,-71.719],[-12.028,-71.642],[-12.152,-71.728],[-12.508,-71.765],[-12.989,-71.904],[-12.899,-71.922],[-12.916,-71.966],[-12.863,-72.002],[-12.789,-72.007],[-12.535,-72.14],[-12.509,-72.173],[-12.588,-72.196],[-12.72,-72.188],[-12.888,-72.137],[-12.963,-72.064],[-12.911,-72.012],[-13.216,-72.036],[-13.312,-71.977],[-13.429,-71.968],[-14.07,-72.054],[-14.524,-72.072],[-14.954,-72.138],[-15.072,-72.128],[-15.202,-72.168],[-15.345,-72.158],[-15.38,-72.168],[-15.349,-72.193],[-15.53,-72.268],[-16.367,-72.395],[-16.414,-72.467],[-16.356,-72.459],[-16.303,-72.478],[-16.173,-72.6],[-16.105,-72.679],[-16.175,-72.703],[-16.318,-72.702],[-16.453,-72.652],[-16.515,-72.529],[-16.586,-72.485],[-17.655,-72.556],[-17.602,-72.573],[-17.671,-72.594],[-17.642,-72.619],[-18.001,-72.67],[-18.06,-72.618],[-18.32,-72.583],[-19.13,-72.667],[-19.438,-72.782],[-19.39,-72.842],[-19.587,-72.859],[-19.865,-72.981],[-19.869,-73.053],[-20.394,-73.275],[-20.512,-73.379],[-20.572,-73.549],[-20.674,-73.565],[-20.705,-73.629],[-20.58,-73.619],[-20.521,-73.712],[-20.654,-74.105],[-20.6,-74.197],[-20.423,-74.317],[-20.417,-74.443],[-20.489,-74.493],[-20.737,-74.481],[-20.818,-74.455],[-20.977,-74.225],[-21.167,-74.133],[-21.61,-74.092],[-21.948,-74.103],[-21.947,-74.16],[-22.082,-74.206],[-22.09,-74.267],[-22.351,-74.235],[-22.498,-74.169],[-22.572,-74.165],[-22.631,-74.123],[-22.722,-74.172],[-23.004,-74.163],[-23.227,-73.965],[-23.447,-73.978],[-23.539,-74.033],[-23.578,-73.916],[-23.668,-73.893],[-23.778,-73.902],[-23.854,-73.855],[-24.042,-73.885],[-24.118,-73.858],[-24.296,-73.921],[-25.664,-74.088],[-25.773,-74.234],[-25.615,-74.256],[-25.389,-74.375],[-25.292,-74.537],[-25.381,-74.615],[-25.673,-74.678],[-25.415,-74.733],[-25.271,-74.857],[-25.007,-74.92],[-25.198,-75.001],[-25.22,-75.12],[-25.359,-75.204],[-25.978,-75.304],[-26.283,-75.433],[-27.088,-75.483],[-27.522,-75.544],[-27.644,-75.6],[-27.468,-75.678],[-27.079,-75.723],[-26.8,-75.806],[-26.62,-75.918],[-26.613,-76.064],[-26.059,-75.957],[-24.27,-75.767],[-23.197,-75.718],[-22.466,-75.661],[-21.948,-75.694],[-21.434,-75.683],[-20.989,-75.634],[-20.783,-75.594],[-20.488,-75.492],[-19.493,-75.54],[-18.851,-75.47],[-18.585,-75.463],[-18.305,-75.431],[-18.415,-75.397],[-18.517,-75.39],[-18.749,-75.242],[-18.517,-75.052],[-18.221,-74.975],[-17.923,-74.699],[-17.436,-74.379],[-17.299,-74.334],[-16.989,-74.32],[-16.43,-74.324],[-15.673,-74.407],[-15.29,-74.281],[-15.089,-74.163],[-14.574,-73.937],[-14.611,-73.852],[-15.26,-73.889],[-15.749,-73.946],[-16.22,-73.916],[-16.282,-73.867],[-16.181,-73.83],[-16.003,-73.816],[-15.936,-73.758],[-16.097,-73.709],[-16.388,-73.681],[-16.519,-73.644],[-16.435,-73.426],[-16.149,-73.334],[-15.803,-73.152],[-15.596,-73.097],[-15.007,-73.047],[-14.321,-73.123],[-14.165,-73.102],[-14,-73.001],[-14.168,-72.843],[-14.298,-72.785],[-14.298,-72.733],[-13.603,-72.792],[-13.209,-72.785],[-12.747,-72.629],[-12.095,-72.498],[-11.497,-72.413],[-10.958,-71.902],[-10.961,-71.822],[-11.009,-71.758],[-11.333,-71.786],[-11.697,-71.719]]]}},
{"type":"Feature","properties":{},"geometry":{"type":"Polygon","coordinates":[[[103.645,-65.421],[103.551,-65.443],[103.374,-65.425],[103.397,-65.445],[103.337,-65.469],[103.176,-65.455],[103.173,-65.495],[103.098,-65.562],[102.888,-65.571],[102.958,-65.593],[103.045,-65.663],[103.087,-65.745],[103.037,-65.792],[102.972,-65.764],[102.902,-65.793],[102.883,-65.887],[103.166,-65.917],[103.639,-65.999],[103.877,-65.989],[103.875,-65.952],[103.933,-65.949],[103.929,-65.917],[104.047,-65.873],[103.998,-65.776],[104.084,-65.722],[104.077,-65.652],[103.966,-65.595],[103.981,-65.543],[103.78,-65.47],[103.712,-65.465],[103.645,-65.421]]]}},
{"type":"Feature","properties":{},"geometry":{"type":"Polygon","coordinates":[[[-111.722,-74.387],[-111.792,-74.262],[-111.889,-74.229],[-113.437,-74.16],[-113.716,-74.235],[-113.753,-74.367],[-113.641,-74.406],[-113.454,-74.394],[-113.333,-74.454],[-113.597,-74.559],[-113.904,-74.644],[-113.985,-74.843],[-114.097,-74.909],[-114.11,-74.982],[-113.932,-74.982],[-113.753,-74.952],[-113.092,-74.892],[-111.696,-74.792],[-111.584,-74.751],[-111.739,-74.653],[-111.789,-74.572],[-111.696,-74.504],[-111.722,-74.387]]]}},
{"type":"Feature","properties":{},"geometry":{"type":"Polygon","coordinates":[[[0.106,-69.612],[0.078,-69.59],[-0.576,-69.65],[-0.963,-69.64],[-1.091,-69.671],[-1.105,-69.704],[-1.064,-69.72],[-1.318,-69.72],[-1.505,-69.807],[-1.453,-69.84],[-1.509,-69.888],[-1.632,-69.934],[-1.463,-69.933],[-1.474,-70.022],[-1.291,-70.05],[-1.796,-70.11],[-1.901,-70.166],[-2.158,-70.188],[-2.315,-70.175],[-2.795,-70.292],[-2.714,-70.32],[-2.684,-70.376],[-2.683,-70.462],[-2.738,-70.507],[-3.442,-70.535],[-3.497,-70.488],[-3.439,-70.448],[-3.527,-70.415],[-5.009,-70.356],[-5.568,-70.396],[-5.6,-70.384],[-5.55,-70.362],[-5.594,-70.346],[-5.679,-70.373],[-5.742,-70.437],[-5.827,-70.45],[-5.825,-70.484],[-5.96,-70.427],[-5.894,-70.552],[-6.156,-70.612],[-6.415,-70.449],[-6.609,-70.413],[-6.646,-70.454],[-6.735,-70.458],[-7.063,-70.423],[-7.244,-70.44],[-7.289,-70.482],[-7.428,-70.528],[-7.454,-70.618],[-7.754,-70.684],[-8.1,-70.657],[-8.15,-70.622],[-8.14,-70.54],[-8.212,-70.538],[-8.197,-70.505],[-8.395,-70.512],[-8.571,-70.552],[-8.754,-70.53],[-9.694,-70.747],[-9.81,-70.869],[-10.016,-70.966],[-9.888,-71.027],[-9.599,-71.095],[-9.402,-71.118],[-9.231,-71.174],[-8.966,-71.361],[-8.647,-71.673],[-7.916,-71.635],[-7.714,-71.546],[-7.669,-71.324],[-7.59,-71.224],[-7.618,-71.121],[-7.874,-70.94],[-7.855,-70.885],[-7.753,-70.843],[-7.388,-70.787],[-6.838,-70.845],[-6.548,-70.817],[-5.936,-70.713],[-5.695,-70.745],[-5.588,-70.857],[-5.709,-70.968],[-6.08,-71.154],[-6.117,-71.326],[-5.95,-71.342],[-4.45,-71.328],[-3.995,-71.339],[-3.713,-71.375],[-2.61,-71.321],[-2.261,-71.357],[-2.015,-71.433],[-1.501,-71.412],[-1.354,-71.387],[-1.216,-71.284],[-1.068,-71.266],[-0.896,-71.349],[-0.84,-71.54],[-0.76,-71.63],[-0.543,-71.713],[-0.327,-71.642],[0.154,-71.398],[0.538,-71.274],[0.835,-71.202],[1.909,-71.004],[2.609,-70.9],[3.507,-70.844],[5.113,-70.656],[6.508,-70.586],[7.401,-70.494],[7.677,-70.356],[8.307,-70.462],[8.523,-70.474],[8.817,-70.391],[9.142,-70.184],[9.614,-70.269],[9.885,-70.403],[10.218,-70.508],[10.969,-70.688],[11.203,-70.729],[11.701,-70.767],[11.834,-70.737],[12.068,-70.617],[12.309,-70.443],[12.462,-70.37],[12.929,-70.213],[12.865,-70.162],[12.595,-70.117],[12.607,-70.097],[12.258,-70.063],[11.953,-69.929],[11.961,-69.977],[11.867,-69.949],[11.889,-70.012],[11.838,-69.994],[11.804,-70.035],[11.735,-70.054],[11.343,-69.991],[11.304,-69.954],[10.992,-69.982],[11.025,-70.011],[10.978,-70.042],[10.753,-70.054],[10.481,-69.963],[10.415,-69.971],[10.459,-69.942],[10.227,-69.91],[9.863,-69.984],[9.871,-70.027],[9.703,-70.012],[9.318,-70.1],[9.156,-70.1],[9.08,-70.088],[9.071,-70.009],[9.018,-69.985],[8.824,-69.959],[8.479,-69.865],[8.428,-69.884],[8.408,-69.977],[8.355,-69.984],[8.189,-69.873],[8.049,-69.958],[7.945,-70.129],[7.618,-70.209],[7.392,-70.192],[7.413,-70.152],[7.35,-70.131],[7.193,-69.997],[6.492,-70.042],[6.297,-70.001],[5.642,-70.008],[5.525,-70.09],[5.533,-70.117],[5.733,-70.245],[5.613,-70.252],[5.526,-70.238],[5.406,-70.193],[5.332,-70.103],[4.873,-70.189],[4.496,-70.212],[4.47,-70.25],[4.586,-70.294],[4.59,-70.433],[4.526,-70.479],[4.365,-70.503],[4.18,-70.451],[4.13,-70.417],[4.076,-70.325],[4.102,-70.272],[4.053,-70.253],[4.12,-70.121],[3.979,-70.094],[3.801,-70.123],[3.756,-70.113],[3.769,-70.079],[3.628,-70.052],[3.393,-70.065],[3.313,-70.106],[3.123,-70.101],[3.022,-70.126],[3.051,-70.107],[3.004,-70.093],[2.933,-70.117],[2.455,-70.154],[2.356,-70.136],[2.228,-70.028],[2.102,-70.062],[2.091,-69.998],[1.934,-69.951],[1.75,-69.947],[1.464,-70.055],[1.416,-70.048],[1.461,-70.136],[1.299,-70.255],[1.211,-70.381],[1.156,-70.378],[0.952,-70.169],[0.95,-70.094],[1.027,-70.05],[1.243,-70.029],[1.139,-69.945],[0.839,-69.894],[0.453,-70.02],[0.277,-70.121],[0.406,-69.934],[0.356,-69.891],[0.255,-69.949],[0.286,-69.827],[0.252,-69.829],[0.209,-69.934],[0.196,-69.923],[0.106,-69.612]],[[2.585,-70.535],[2.631,-70.5],[3.072,-70.382],[3.23,-70.403],[3.26,-70.449],[3.171,-70.554],[3.037,-70.597],[2.698,-70.624],[2.623,-70.593],[2.585,-70.535]],[[-3.537,-70.683],[-3.04,-70.674],[-2.75,-70.694],[-2.423,-70.8],[-2.256,-70.796],[-2.092,-70.821],[-2.369,-71.044],[-2.607,-71.141],[-2.784,-71.167],[-2.825,-71.113],[-2.801,-70.982],[-2.963,-70.94],[-3.007,-70.851],[-3.489,-70.736],[-3.575,-70.703],[-3.537,-70.683]],[[-3.213,-71.076],[-2.955,-71.214],[-3.061,-71.237],[-3.201,-71.23],[-3.309,-71.201],[-3.404,-71.12],[-3.399,-71.062],[-3.263,-71.052],[-3.213,-71.076]]]}},
{"type":"Feature","properties":{},"geometry":{"type":"Polygon","coordinates":[[[160.337,-69.806],[160.126,-69.776],[160.21,-69.975],[160.522,-70.05],[160.413,-69.972],[160.595,-69.953],[160.562,-69.893],[160.337,-69.806]]]}},
{"type":"Feature","properties":{},"geometry":{"type":"Polygon","coordinates":[[[97.39,-65.228],[97.261,-65.18],[97.299,-65.167],[97.131,-65.087],[96.948,-65.039],[96.254,-64.979],[96.183,-65.011],[96.158,-65.085],[95.931,-65.131],[95.84,-65.259],[95.534,-65.258],[95.545,-65.418],[95.509,-65.461],[95.403,-65.512],[95.485,-65.564],[95.536,-65.656],[95.491,-65.856],[95.537,-65.946],[95.499,-65.991],[95.571,-66.152],[95.338,-66.238],[94.892,-66.215],[94.848,-66.316],[94.968,-66.418],[94.909,-66.509],[95.084,-66.527],[95.541,-66.631],[96.424,-66.6],[97.101,-66.499],[97.388,-66.579],[97.72,-66.607],[98.258,-66.467],[98.72,-66.553],[98.859,-66.671],[99.37,-66.648],[100.212,-66.474],[100.591,-66.425],[100.889,-66.358],[101.327,-66.1],[101.321,-66.021],[101.381,-65.973],[101.474,-65.951],[102.174,-65.954],[102.392,-65.933],[102.567,-65.891],[102.157,-65.851],[102.107,-65.794],[101.691,-65.767],[101.732,-65.722],[101.676,-65.648],[101.23,-65.568],[100.981,-65.677],[100.547,-65.701],[100.512,-65.675],[100.351,-65.673],[100.315,-65.66],[100.231,-65.733],[99.887,-65.751],[99.657,-65.723],[99.447,-65.788],[99.273,-65.746],[99.151,-65.637],[98.543,-65.653],[98.429,-65.692],[98.387,-65.744],[97.967,-65.732],[97.825,-65.64],[97.88,-65.561],[97.856,-65.505],[97.716,-65.47],[97.658,-65.391],[97.56,-65.382],[97.447,-65.336],[97.479,-65.319],[97.464,-65.286],[97.406,-65.262],[97.39,-65.228]],[[96.307,-66.186],[96.399,-66.08],[96.5,-66.046],[96.613,-66.036],[96.727,-66.061],[96.932,-66.058],[97.006,-66.097],[97.019,-66.139],[97.016,-66.164],[96.934,-66.201],[96.395,-66.225],[96.307,-66.186]],[[100.082,-66.203],[100.174,-66.131],[100.29,-66.112],[100.265,-66.217],[100.133,-66.229],[100.082,-66.203]],[[98.655,-66.453],[98.596,-66.383],[98.749,-66.369],[98.95,-66.42],[98.846,-66.47],[98.752,-66.482],[98.655,-66.453]]]}},
{"type":"Feature","properties":{},"geometry":{"type":"MultiPolygon","coordinates":[[[[-94.67,-72.445],[-95.161,-72.283],[-95.313,-72.257],[-95.478,-72.105],[-95.609,-72.068],[-95.61,-72.175],[-95.531,-72.249],[-95.575,-72.41],[-96.078,-72.454],[-96.014,-72.525],[-96.052,-72.577],[-96.693,-72.548],[-96.915,-72.578],[-97.028,-72.574],[-97.25,-72.521],[-97.828,-72.557],[-98.408,-72.548],[-98.641,-72.49],[-99.149,-72.472],[-100.195,-72.273],[-100.357,-72.278],[-101.602,-72.176],[-102.022,-72.185],[-102.279,-72.12],[-102.289,-72.145],[-102.443,-72.203],[-102.711,-72.268],[-103.299,-72.231],[-103.393,-72.248],[-103.396,-72.284],[-103.354,-72.315],[-103.053,-72.409],[-102.968,-72.463],[-102.765,-72.513],[-102.781,-72.591],[-102.73,-72.648],[-102.853,-72.716],[-102.485,-72.736],[-102.363,-72.76],[-102.272,-72.835],[-102.363,-72.911],[-102.482,-72.951],[-102.409,-72.987],[-102.029,-72.998],[-101.681,-73.03],[-101.332,-72.995],[-100.821,-72.981],[-100.259,-73.041],[-99.811,-73],[-98.209,-73.022],[-98.012,-73.033],[-97.651,-73.144],[-97.476,-73.126],[-96.956,-73.206],[-96.676,-73.269],[-96.394,-73.301],[-96.152,-73.309],[-95.881,-73.294],[-95.529,-73.241],[-95.237,-73.22],[-94.586,-73.249],[-94.246,-73.313],[-93.985,-73.287],[-93.706,-73.215],[-92.828,-73.165],[-92.241,-73.178],[-91.169,-73.307],[-90.921,-73.319],[-90.431,-73.243],[-90.274,-73.119],[-90.295,-72.978],[-90.152,-72.945],[-90.035,-72.96],[-89.818,-72.863],[-89.341,-72.89],[-89.229,-72.826],[-89.116,-72.693],[-89.425,-72.642],[-89.543,-72.601],[-89.804,-72.587],[-89.848,-72.521],[-89.803,-72.479],[-89.871,-72.456],[-90.038,-72.463],[-90.209,-72.606],[-90.458,-72.642],[-90.514,-72.688],[-90.705,-72.747],[-90.78,-72.73],[-90.895,-72.824],[-90.776,-72.854],[-90.776,-72.993],[-90.998,-73.137],[-91.344,-73.207],[-91.511,-73.195],[-91.45,-72.968],[-91.357,-72.91],[-91.551,-72.754],[-91.652,-72.614],[-92.186,-72.605],[-92.432,-72.634],[-92.645,-72.576],[-93.161,-72.546],[-93.333,-72.563],[-94.167,-72.518],[-94.67,-72.445]],[[-94.753,-72.517],[-94.566,-72.468],[-94.538,-72.476],[-94.426,-72.613],[-95.027,-72.665],[-95.219,-72.67],[-95.273,-72.647],[-95.216,-72.599],[-94.753,-72.517]],[[-94.078,-72.884],[-94.113,-72.86],[-94.004,-72.82],[-93.756,-72.908],[-93.966,-72.92],[-94.078,-72.884]]],[[[-96.718,-72.255],[-95.906,-72.122],[-95.685,-72.057],[-96.066,-71.914],[-96.156,-71.923],[-96.298,-72.045],[-96.715,-72.132],[-96.979,-72.222],[-96.799,-72.259],[-96.718,-72.255]]]]}},
{"type":"Feature","properties":{},"geometry":{"type":"Polygon","coordinates":[[[157.57,-69.277],[157.467,-69.194],[157.522,-69.181],[157.397,-69.146],[157.31,-69.07],[157.25,-69.079],[157.249,-69.119],[157.11,-69.155],[157.075,-69.185],[157.481,-69.309],[157.57,-69.277]]]}},
{"type":"Feature","properties":{},"geometry":{"type":"Polygon","coordinates":[[[-109.279,-75.185],[-109.169,-75.068],[-109.493,-74.916],[-109.465,-74.847],[-109.529,-74.801],[-110.034,-74.659],[-110.026,-74.629],[-110.242,-74.566],[-110.3,-74.711],[-110.532,-74.836],[-110.968,-74.951],[-111.463,-75.133],[-111.359,-75.22],[-111.104,-75.191],[-109.99,-75.199],[-109.279,-75.185]]]}},
{"type":"Feature","properties":{},"geometry":{"type":"Polygon","coordinates":[[[70.332,-68.679],[70.236,-68.513],[69.978,-68.46],[69.928,-68.535],[69.762,-68.599],[69.534,-68.737],[69.547,-68.857],[69.646,-68.932],[69.531,-69.024],[69.629,-69.232],[69.549,-69.294],[69.372,-69.331],[69.065,-69.337],[68.906,-69.373],[68.88,-69.47],[68.959,-69.54],[69.136,-69.578],[69.188,-69.655],[69.162,-69.77],[69.083,-69.867],[68.92,-69.912],[68.744,-69.921],[68.415,-69.902],[68.178,-69.837],[67.575,-70.088],[67.268,-70.273],[67.659,-70.326],[67.941,-70.423],[68.559,-70.412],[69.021,-70.325],[69.162,-70.334],[69.25,-70.431],[69.188,-70.705],[68.873,-71.035],[68.624,-71.181],[68.037,-71.391],[67.432,-72.003],[67.113,-72.641],[66.892,-72.949],[66.498,-73.126],[66.569,-73.209],[67.003,-73.236],[67.322,-73.3],[67.749,-73.168],[67.971,-73.086],[68.015,-72.918],[67.971,-72.751],[68.107,-72.651],[68.42,-72.515],[69.555,-72.374],[69.962,-72.133],[70.294,-72.055],[70.573,-71.931],[70.616,-71.842],[71.079,-71.737],[71.277,-71.624],[71.465,-71.155],[71.771,-70.801],[71.905,-70.707],[72.263,-70.657],[72.418,-70.599],[72.76,-70.396],[72.744,-70.239],[72.822,-70.096],[73.041,-70.01],[73.325,-69.849],[73.676,-69.826],[73.942,-69.743],[74.571,-69.88],[75.148,-69.855],[75.424,-69.893],[75.635,-69.849],[75.821,-69.726],[75.872,-69.616],[75.794,-69.549],[75.597,-69.553],[75.552,-69.595],[75.495,-69.599],[75.123,-69.56],[75.035,-69.591],[75.098,-69.618],[75.049,-69.642],[74.876,-69.67],[74.781,-69.607],[74.689,-69.605],[74.555,-69.64],[74.527,-69.756],[74.321,-69.718],[73.702,-69.753],[73.685,-69.649],[73.746,-69.592],[73.959,-69.54],[74.095,-69.536],[74.16,-69.496],[73.941,-69.426],[74.277,-69.418],[74.193,-69.349],[74.272,-69.353],[73.904,-69.138],[73.808,-69.115],[73.619,-68.961],[73.524,-68.93],[73.487,-68.878],[73.155,-68.748],[72.781,-68.715],[72.774,-68.673],[72.704,-68.632],[72.418,-68.628],[72.2,-68.59],[71.89,-68.593],[71.654,-68.649],[71.413,-68.6],[71.317,-68.626],[71.218,-68.7],[71.06,-68.697],[70.838,-68.603],[70.684,-68.704],[70.399,-68.712],[70.332,-68.679]],[[71.705,-70.284],[71.797,-70.264],[71.88,-70.406],[72.056,-70.501],[72.078,-70.609],[72.002,-70.633],[71.841,-70.622],[71.659,-70.497],[71.647,-70.336],[71.705,-70.284]],[[69.744,-72.044],[69.692,-71.968],[69.737,-71.922],[69.796,-71.894],[69.918,-71.918],[69.792,-72.047],[69.744,-72.044]],[[68.436,-72.26],[68.667,-72.103],[68.729,-72.089],[68.84,-72.165],[68.817,-72.229],[68.669,-72.276],[68.409,-72.3],[68.436,-72.26]]]}},
{"type":"Feature","properties":{},"geometry":{"type":"Polygon","coordinates":[[[-101.189,-73.318],[-101.574,-73.33],[-101.702,-73.32],[-101.643,-73.406],[-101.687,-73.501],[-101.431,-73.591],[-101.331,-73.693],[-100.985,-73.757],[-99.781,-73.72],[-99.541,-73.645],[-99.162,-73.641],[-98.896,-73.611],[-99.2,-73.571],[-100.021,-73.403],[-100.436,-73.353],[-101.189,-73.318]]]}},
{"type":"Feature","properties":{},"geometry":{"type":"Polygon","coordinates":[[[-10.825,-71.553],[-10.66,-71.443],[-10.52,-71.295],[-10.034,-71.131],[-10.122,-71.061],[-10.331,-71.024],[-10.355,-70.989],[-10.816,-70.958],[-10.843,-70.981],[-10.72,-71.003],[-11.086,-71.02],[-11.412,-71.116],[-11.445,-71.198],[-11.66,-71.275],[-11.72,-71.322],[-11.16,-71.481],[-10.97,-71.56],[-10.825,-71.553]]]}},
{"type":"Feature","properties":{},"geometry":{"type":"Polygon","coordinates":[[[-106.275,-74.78],[-106.49,-74.764],[-106.539,-74.731],[-107.11,-74.908],[-107.8,-74.942],[-107.848,-75.045],[-108.163,-75.052],[-108.27,-75.081],[-107.921,-75.095],[-107.756,-75.143],[-108.045,-75.192],[-108.161,-75.267],[-107.805,-75.322],[-107.267,-75.334],[-106.932,-75.309],[-106.619,-75.344],[-105.399,-75.198],[-104.902,-75.115],[-104.618,-75.156],[-104.16,-75.121],[-103.901,-75.153],[-103.541,-75.114],[-103.557,-75.084],[-103.67,-75.081],[-104.553,-75.088],[-104.982,-74.993],[-105.162,-74.92],[-105.153,-74.867],[-105.303,-74.813],[-105.303,-74.768],[-106.044,-74.811],[-106.162,-74.842],[-106.275,-74.78]]]}},
{"type":"Feature","properties":{},"geometry":{"type":"Polygon","coordinates":[[[-101.415,-74.275],[-101.69,-74.306],[-101.747,-74.338],[-101.84,-74.337],[-101.938,-74.403],[-102.46,-74.512],[-102.332,-74.544],[-102.156,-74.549],[-102.047,-74.61],[-101.902,-74.607],[-101.195,-74.713],[-101.403,-74.817],[-101.649,-75.017],[-101.791,-75.063],[-101.821,-75.126],[-101.708,-75.127],[-101.628,-75.222],[-101.304,-75.366],[-101.039,-75.422],[-100.706,-75.398],[-100.463,-75.353],[-100.083,-75.37],[-99.531,-75.309],[-98.98,-75.327],[-98.752,-75.317],[-98.646,-75.277],[-98.558,-75.19],[-98.727,-75.141],[-99.208,-75.079],[-99.652,-74.949],[-99.849,-74.922],[-100.164,-74.938],[-100.473,-74.872],[-100.265,-74.823],[-100.013,-74.662],[-100.119,-74.515],[-100.238,-74.484],[-100.531,-74.489],[-100.882,-74.541],[-101.023,-74.505],[-101.252,-74.486],[-101.415,-74.275]]]}},
{"type":"Feature","properties":{},"geometry":{"type":"Polygon","coordinates":[[[146.318,-66.698],[146.234,-66.676],[146.03,-66.695],[145.213,-67.073],[145.007,-67.145],[145.045,-67.17],[144.891,-67.173],[144.838,-67.15],[144.813,-67.204],[144.699,-67.227],[144.602,-67.166],[144.515,-67.283],[144.26,-67.479],[144.154,-67.644],[143.942,-67.794],[143.977,-67.865],[144.189,-67.9],[144.404,-67.794],[144.879,-67.721],[145.128,-67.626],[145.556,-67.591],[145.975,-67.624],[146.41,-67.803],[146.441,-67.73],[146.293,-67.676],[146.226,-67.684],[146.043,-67.586],[145.86,-67.53],[145.621,-67.494],[145.287,-67.514],[146.139,-67.187],[146.212,-67.139],[146.163,-67.126],[146.319,-67.05],[146.357,-66.981],[146.63,-66.828],[146.65,-66.794],[146.594,-66.78],[146.636,-66.771],[146.455,-66.782],[146.411,-66.75],[146.355,-66.748],[146.191,-66.811],[146.318,-66.698]]]}},
{"type":"Feature","properties":{},"geometry":{"type":"Polygon","coordinates":[[[-61.242,-73.25],[-61.428,-73.191],[-62.008,-73.148],[-61.915,-73.216],[-61.788,-73.255],[-61.637,-73.5],[-61.405,-73.467],[-61.08,-73.539],[-60.879,-73.612],[-60.799,-73.702],[-60.689,-73.671],[-60.767,-73.629],[-60.851,-73.628],[-60.598,-73.543],[-60.54,-73.447],[-60.252,-73.317],[-60.222,-73.263],[-60.561,-73.211],[-60.687,-73.271],[-60.896,-73.32],[-61.081,-73.328],[-61.242,-73.25]]]}},
{"type":"Feature","properties":{},"geometry":{"type":"Polygon","coordinates":[[[-61.404,-73.896],[-61.545,-73.896],[-61.692,-73.924],[-61.742,-73.996],[-61.838,-74.032],[-61.319,-74.036],[-61.161,-74.056],[-61.042,-74.122],[-61.227,-74.208],[-61.571,-74.195],[-61.718,-74.228],[-61.843,-74.29],[-61.332,-74.329],[-61.121,-74.307],[-60.784,-74.241],[-60.755,-74.265],[-60.684,-74.178],[-60.687,-74.13],[-60.775,-74.094],[-60.878,-73.972],[-61.023,-73.963],[-60.999,-73.901],[-61.203,-73.957],[-61.404,-73.896]]]}},
{"type":"Feature","properties":{},"geometry":{"type":"Polygon","coordinates":[[[-71.787,-69.688],[-72.032,-69.671],[-71.985,-69.698],[-72.202,-69.74],[-72.546,-69.678],[-72.485,-69.791],[-72.577,-69.865],[-72.711,-69.918],[-72.655,-69.978],[-72.683,-70.007],[-73.175,-70.048],[-73.235,-70.206],[-73.504,-70.298],[-73.72,-70.325],[-73.912,-70.472],[-73.938,-70.531],[-74.011,-70.556],[-73.707,-70.635],[-73.55,-70.723],[-73.659,-70.784],[-73.57,-70.781],[-73.289,-70.849],[-73.261,-70.895],[-73.299,-70.991],[-73.032,-71.028],[-72.941,-71.109],[-72.71,-71.073],[-72.356,-71.075],[-71.719,-71.145],[-71.505,-71.112],[-71.308,-71.011],[-71.194,-70.985],[-70.741,-70.993],[-70.381,-70.946],[-70.268,-70.965],[-69.916,-71.134],[-69.835,-71.093],[-69.83,-70.914],[-69.876,-70.876],[-69.993,-70.897],[-70.299,-70.836],[-70.661,-70.818],[-70.917,-70.786],[-71.049,-70.762],[-71.173,-70.713],[-71.19,-70.66],[-71.061,-70.537],[-70.562,-70.404],[-70.328,-70.361],[-70.09,-70.351],[-69.702,-70.415],[-69.618,-70.398],[-70.328,-70.16],[-70.72,-70.139],[-70.926,-70.192],[-71.121,-70.196],[-71.696,-70.068],[-71.854,-69.969],[-71.879,-69.909],[-71.787,-69.688]],[[-71.782,-70.319],[-71.795,-70.288],[-71.695,-70.265],[-71.648,-70.295],[-71.432,-70.267],[-71.34,-70.318],[-71.551,-70.439],[-71.685,-70.442],[-71.782,-70.319]]]}},
{"type":"Feature","properties":{},"geometry":{"type":"Polygon","coordinates":[[[147.134,-68.07],[147.008,-67.952],[146.87,-67.936],[146.801,-67.954],[146.897,-68.12],[146.798,-68.274],[147.094,-68.369],[147.354,-68.384],[147.569,-68.375],[148.456,-68.467],[148.682,-68.448],[148.679,-68.404],[148.738,-68.361],[148.614,-68.336],[147.738,-68.338],[147.723,-68.318],[147.795,-68.318],[147.851,-68.279],[147.979,-68.287],[148.024,-68.248],[147.948,-68.213],[147.756,-68.193],[147.67,-68.149],[147.607,-68.148],[147.583,-68.106],[147.317,-68.139],[147.134,-68.07]]]}},
{"type":"Feature","properties":{},"geometry":{"type":"Polygon","coordinates":[[[-60.598,-66.099],[-60.629,-66.035],[-60.744,-66.105],[-60.856,-66.065],[-60.956,-66.072],[-61.009,-66.111],[-60.903,-66.191],[-61.028,-66.337],[-61.134,-66.29],[-61.15,-66.212],[-61.293,-66.165],[-61.432,-66.145],[-61.526,-66.226],[-61.676,-66.25],[-61.756,-66.429],[-61.842,-66.403],[-61.875,-66.296],[-62.117,-66.209],[-62.241,-66.197],[-62.682,-66.237],[-62.755,-66.31],[-62.65,-66.364],[-62.615,-66.436],[-62.655,-66.556],[-62.543,-66.621],[-62.537,-66.707],[-62.629,-66.706],[-62.705,-66.68],[-62.997,-66.453],[-63.18,-66.353],[-63.258,-66.264],[-63.587,-66.242],[-63.753,-66.278],[-63.654,-66.383],[-63.756,-66.409],[-63.964,-66.589],[-64.078,-66.654],[-63.809,-66.761],[-63.755,-66.873],[-63.84,-66.912],[-64.043,-66.927],[-64.401,-66.853],[-64.554,-66.852],[-64.607,-66.8],[-64.686,-66.806],[-64.793,-66.972],[-64.878,-67.024],[-64.854,-67.105],[-64.786,-67.124],[-65.027,-67.214],[-64.858,-67.243],[-64.819,-67.307],[-65.249,-67.342],[-65.35,-67.311],[-65.443,-67.326],[-65.503,-67.377],[-65.504,-67.528],[-65.418,-67.66],[-65.574,-67.788],[-65.6,-67.876],[-65.469,-68.009],[-65.64,-68.131],[-65.546,-68.147],[-65.218,-68.14],[-64.885,-68.056],[-64.829,-68.127],[-64.896,-68.168],[-65.365,-68.287],[-65.452,-68.337],[-65.331,-68.364],[-65.09,-68.37],[-64.996,-68.408],[-65.242,-68.583],[-65.158,-68.618],[-64.429,-68.746],[-64.078,-68.771],[-64.157,-68.687],[-64.169,-68.583],[-63.797,-68.47],[-63.217,-68.419],[-63.057,-68.421],[-62.933,-68.443],[-62.98,-68.486],[-63.115,-68.471],[-63.348,-68.499],[-63.707,-68.592],[-63.773,-68.632],[-63.747,-68.705],[-63.443,-68.764],[-63.344,-68.81],[-63.478,-68.951],[-63.456,-69.042],[-62.994,-69.329],[-62.587,-69.477],[-62.451,-69.584],[-62.407,-69.827],[-62.202,-70.028],[-61.961,-70.12],[-61.935,-70.199],[-62.014,-70.279],[-62.218,-70.233],[-62.332,-70.279],[-62.378,-70.365],[-62.001,-70.497],[-61.505,-70.491],[-61.491,-70.57],[-61.697,-70.676],[-61.809,-70.709],[-61.994,-70.729],[-62.04,-70.801],[-61.961,-70.901],[-61.702,-70.857],[-61.513,-70.851],[-61.313,-70.868],[-61.252,-71.002],[-61.017,-71.167],[-60.962,-71.245],[-61.003,-71.319],[-61.148,-71.342],[-61.237,-71.401],[-61.369,-71.452],[-61.516,-71.479],[-61.79,-71.616],[-61.91,-71.631],[-61.959,-71.658],[-61.563,-71.675],[-61.214,-71.564],[-61.081,-71.589],[-60.995,-71.661],[-60.949,-71.747],[-61.035,-71.82],[-61.645,-71.863],[-61.939,-71.904],[-62.257,-72.018],[-61.894,-72.071],[-61.628,-72.053],[-61.31,-72.113],[-61.108,-72.091],[-60.952,-72.05],[-60.719,-72.073],[-60.665,-72.362],[-60.73,-72.426],[-61.048,-72.471],[-61.28,-72.468],[-61.286,-72.601],[-60.939,-72.7],[-60.724,-72.647],[-60.532,-72.673],[-60.532,-72.832],[-60.385,-73.007],[-60.255,-73.017],[-60.149,-72.938],[-60.061,-72.938],[-60.036,-72.868],[-59.925,-72.795],[-59.896,-72.663],[-59.781,-72.632],[-59.672,-72.47],[-59.711,-72.425],[-59.889,-72.378],[-59.936,-72.323],[-60.105,-72.293],[-60.192,-72.175],[-60.279,-72.136],[-60.321,-72.065],[-60.252,-71.989],[-60.296,-71.931],[-60.252,-71.884],[-60.252,-71.74],[-60.449,-71.636],[-60.441,-71.567],[-60.531,-71.451],[-60.529,-71.391],[-60.402,-71.31],[-60.585,-71.13],[-60.568,-71.054],[-60.79,-71.041],[-60.906,-71.007],[-60.947,-70.967],[-60.889,-70.934],[-60.783,-70.914],[-60.684,-70.918],[-60.675,-70.778],[-60.696,-70.699],[-60.826,-70.711],[-60.897,-70.69],[-60.976,-70.599],[-60.942,-70.532],[-60.884,-70.518],[-60.603,-70.51],[-60.573,-70.463],[-60.638,-70.374],[-60.952,-70.115],[-61.001,-70.104],[-61.014,-69.998],[-61.114,-69.958],[-61.158,-69.976],[-61.309,-69.978],[-61.404,-69.933],[-61.327,-69.856],[-61.269,-69.865],[-61.293,-69.85],[-60.899,-69.81],[-60.841,-69.777],[-60.872,-69.708],[-60.992,-69.651],[-61.2,-69.621],[-61.487,-69.429],[-61.489,-69.364],[-61.028,-69.099],[-60.776,-69.026],[-60.712,-68.929],[-60.842,-68.845],[-60.754,-68.823],[-60.798,-68.781],[-61.015,-68.71],[-60.947,-68.681],[-60.814,-68.688],[-60.75,-68.708],[-60.708,-68.66],[-60.659,-68.674],[-60.629,-68.652],[-60.676,-68.605],[-60.793,-68.563],[-60.659,-68.491],[-60.716,-68.432],[-60.698,-68.282],[-60.629,-68.141],[-60.499,-68.02],[-60.554,-67.965],[-60.52,-67.879],[-60.734,-67.823],[-60.817,-67.736],[-60.854,-67.747],[-60.892,-67.633],[-60.784,-67.512],[-60.454,-67.507],[-60.348,-67.45],[-60.247,-67.27],[-60.249,-67.089],[-60.29,-67.03],[-60.404,-67.018],[-60.284,-66.975],[-60.061,-66.806],[-60.107,-66.735],[-60.293,-66.7],[-60.397,-66.644],[-60.359,-66.502],[-60.487,-66.386],[-60.466,-66.343],[-60.511,-66.153],[-60.598,-66.099]],[[-62.172,-69.637],[-62.216,-69.495],[-62.496,-69.288],[-62.568,-69.18],[-62.442,-69.146],[-62.239,-69.176],[-62.118,-69.215],[-61.816,-69.376],[-61.807,-69.515],[-61.911,-69.533],[-61.998,-69.722],[-62.085,-69.729],[-62.172,-69.637]]]}},
{"type":"Feature","properties":{},"geometry":{"type":"Polygon","coordinates":[[[-59.991,-65.066],[-60.09,-64.966],[-60.3,-64.961],[-60.56,-64.892],[-60.654,-64.841],[-60.716,-64.768],[-61.06,-64.981],[-61.233,-65.008],[-60.933,-65.099],[-60.851,-65.081],[-60.477,-65.095],[-60.338,-65.067],[-60.061,-65.109],[-60.003,-65.162],[-59.727,-65.215],[-59.699,-65.201],[-59.842,-65.126],[-59.791,-65.097],[-59.991,-65.066]]]}},
{"type":"Feature","properties":{},"geometry":{"type":"Polygon","coordinates":[[[-60.87,-65.91],[-61.304,-65.754],[-61.282,-65.656],[-61.233,-65.642],[-61.275,-65.599],[-61.517,-65.572],[-61.649,-65.524],[-61.774,-65.548],[-61.756,-65.569],[-61.991,-65.589],[-62.305,-65.84],[-62.293,-65.916],[-62.169,-66.031],[-62.005,-66.113],[-61.839,-66.12],[-61.625,-66.095],[-61.575,-66.071],[-61.359,-66.059],[-61.266,-65.98],[-61.039,-65.992],[-60.988,-65.94],[-60.913,-65.921],[-60.827,-65.932],[-60.87,-65.91]]]}},
{"type":"Feature","properties":{},"geometry":{"type":"Polygon","coordinates":[[[-72.43,-71.275],[-72.905,-71.223],[-73.035,-71.15],[-73.101,-71.155],[-73.129,-71.182],[-73.241,-71.189],[-73.283,-71.273],[-73.406,-71.322],[-73.02,-71.369],[-72.622,-71.388],[-72.212,-71.335],[-72.43,-71.275]]]}},
{"type":"Feature","properties":{},"geometry":{"type":"Polygon","coordinates":[[[126.513,-66.373],[126.436,-66.354],[126.445,-66.273],[126.375,-66.251],[126.185,-66.246],[125.95,-66.303],[125.898,-66.369],[126.665,-66.498],[126.874,-66.759],[127.365,-66.99],[127.541,-67.051],[127.913,-67.031],[127.815,-66.932],[127.638,-66.921],[127.677,-66.827],[127.595,-66.754],[127.433,-66.713],[127.37,-66.576],[126.955,-66.51],[126.733,-66.393],[126.682,-66.404],[126.513,-66.373]]]}},
{"type":"Feature","properties":{},"geometry":{"type":"Polygon","coordinates":[[[-61.995,-74.476],[-62.235,-74.441],[-62.226,-74.506],[-61.894,-74.713],[-61.855,-74.777],[-61.928,-74.863],[-62.138,-74.926],[-62.372,-74.952],[-62.567,-74.896],[-62.709,-74.737],[-62.887,-74.691],[-63.072,-74.678],[-63.178,-74.684],[-63.125,-74.85],[-63.198,-74.909],[-63.357,-74.878],[-63.559,-74.906],[-63.925,-75.004],[-63.337,-75.035],[-63.173,-75.115],[-63.231,-75.154],[-63.858,-75.206],[-64.28,-75.293],[-63.972,-75.329],[-63.678,-75.328],[-63.304,-75.352],[-63.258,-75.399],[-63.363,-75.451],[-64.778,-75.738],[-65.322,-75.815],[-65.966,-75.952],[-66.37,-76.013],[-67.518,-76.11],[-69.304,-76.351],[-69.915,-76.522],[-70.096,-76.655],[-70.21,-76.674],[-70.551,-76.718],[-70.895,-76.739],[-71.799,-76.753],[-72.722,-76.689],[-73.472,-76.675],[-73.88,-76.697],[-75.268,-76.581],[-75.659,-76.608],[-76.244,-76.585],[-77.19,-76.63],[-77.287,-76.702],[-77.168,-76.834],[-76.249,-77.275],[-75.937,-77.334],[-75.748,-77.398],[-75.387,-77.474],[-74.581,-77.478],[-73.478,-77.536],[-72.852,-77.59],[-72.875,-77.694],[-73.252,-77.894],[-74.042,-78.109],[-74.812,-78.178],[-75.398,-78.158],[-76.438,-78.044],[-77.742,-77.94],[-79.679,-77.843],[-80.602,-77.752],[-81.103,-77.842],[-81.581,-77.846],[-81.441,-77.886],[-79.51,-78.154],[-77.858,-78.351],[-77.433,-78.435],[-77.545,-78.66],[-77.869,-78.746],[-78.712,-78.752],[-79.767,-78.821],[-80.292,-78.823],[-80.816,-78.754],[-81.929,-78.559],[-82.608,-78.412],[-83.779,-77.984],[-83.688,-78.148],[-83.246,-78.357],[-83.227,-78.402],[-83.355,-78.408],[-83.544,-78.355],[-83.706,-78.404],[-83.763,-78.461],[-83.595,-78.611],[-83.26,-78.774],[-82.971,-78.817],[-82.589,-78.916],[-81.661,-79.1],[-81.222,-79.298],[-81.163,-79.4],[-80.892,-79.502],[-80.535,-79.513],[-80.489,-79.321],[-80.416,-79.295],[-80.151,-79.268],[-79.456,-79.304],[-76.499,-79.326],[-76.218,-79.387],[-76.032,-79.627],[-76.558,-79.903],[-77.222,-79.994],[-77.702,-80.01],[-79.66,-79.997],[-78.176,-80.167],[-77.16,-80.153],[-76.407,-80.095],[-75.709,-80.383],[-75.495,-80.617],[-75.076,-80.86],[-74.807,-80.886],[-74.511,-80.838],[-73.938,-80.816],[-73.383,-80.894],[-73.029,-80.917],[-72.553,-80.853],[-72.174,-80.764],[-71.38,-80.682],[-71.018,-80.619],[-70.688,-80.626],[-70.56,-80.647],[-70.239,-80.857],[-69.772,-80.962],[-69.182,-81.005],[-68.59,-80.968],[-68.327,-81.004],[-68.144,-81.13],[-65.574,-81.461],[-64.75,-81.522],[-63.478,-81.553],[-62.49,-81.557],[-62.354,-81.577],[-62.165,-81.636],[-62.542,-81.678],[-63.769,-81.676],[-64.233,-81.66],[-64.476,-81.672],[-64.696,-81.652],[-65.022,-81.696],[-65.62,-81.729],[-65.487,-81.775],[-65.264,-81.786],[-64.811,-81.803],[-64.19,-81.795],[-64.137,-81.869],[-65.916,-81.902],[-66.134,-81.953],[-65.844,-81.993],[-65.787,-82.046],[-65.913,-82.183],[-65.714,-82.279],[-65.572,-82.294],[-65.424,-82.28],[-64.92,-82.371],[-64.397,-82.374],[-63.773,-82.304],[-63.466,-82.307],[-62.645,-82.263],[-61.902,-82.271],[-60.859,-82.187],[-60.528,-82.2],[-60.817,-82.276],[-62.095,-82.467],[-62.736,-82.527],[-61.917,-82.977],[-61.709,-83.01],[-61.313,-82.939],[-61.218,-82.992],[-61.2,-83.098],[-61.59,-83.341],[-61.425,-83.396],[-60.983,-83.428],[-59.516,-83.458],[-57.557,-82.89],[-56.318,-82.633],[-55.801,-82.478],[-55.295,-82.465],[-53.986,-82.201],[-53.339,-82.144],[-52.799,-82.154],[-52.415,-82.135],[-50.653,-81.975],[-50.029,-81.968],[-48.361,-81.892],[-47.887,-81.925],[-47.36,-82.004],[-47.02,-82.003],[-46.258,-81.947],[-46.046,-82.159],[-46.199,-82.271],[-46.448,-82.34],[-46.517,-82.455],[-46.175,-82.512],[-45.044,-82.438],[-44.455,-82.366],[-44.292,-82.318],[-44.064,-82.331],[-43.669,-82.27],[-43.18,-82.017],[-42.046,-81.598],[-41.434,-81.298],[-41.126,-81.215],[-40.915,-81.172],[-40.441,-81.165],[-39.762,-81.032],[-38.772,-80.882],[-38.011,-80.954],[-37.209,-81.064],[-36.812,-80.975],[-36.5,-80.96],[-35.966,-80.891],[-35.327,-80.651],[-33.329,-80.54],[-33.191,-80.519],[-33.057,-80.532],[-32.706,-80.514],[-32.256,-80.461],[-31.312,-80.45],[-31.015,-80.308],[-30.425,-80.28],[-29.797,-80.223],[-29.532,-80.182],[-24.24,-80.062],[-24.02,-80.009],[-23.574,-79.965],[-23.407,-79.859],[-24.088,-79.815],[-24.3,-79.771],[-24.534,-79.758],[-24.67,-79.775],[-25.259,-79.763],[-29.949,-79.599],[-30.049,-79.585],[-30.211,-79.485],[-30.178,-79.304],[-30.316,-79.163],[-30.645,-79.124],[-30.985,-79.128],[-32.542,-79.222],[-32.994,-79.229],[-34.197,-79.11],[-34.995,-78.978],[-35.516,-78.933],[-36.239,-78.774],[-36.266,-78.616],[-36.181,-78.468],[-35.76,-78.201],[-35.901,-78.187],[-36.064,-78.242],[-38.133,-78.214],[-38.136,-78.195],[-38.855,-78.15],[-39.219,-78.168],[-40.277,-78.096],[-40.699,-78.011],[-41.005,-78.001],[-41.216,-78.024],[-41.244,-78.046],[-41.403,-78.027],[-41.47,-78.064],[-41.523,-78.024],[-41.881,-78.044],[-42.052,-78.091],[-42.449,-78.115],[-42.666,-78.104],[-43.338,-78.179],[-44.102,-78.165],[-43.855,-78.258],[-43.785,-78.336],[-43.788,-78.433],[-43.947,-78.598],[-45.068,-78.661],[-45.213,-78.687],[-45.295,-78.74],[-45.352,-78.791],[-45.223,-78.811],[-44.566,-78.804],[-43.722,-78.818],[-43.544,-78.902],[-43.267,-79.163],[-43.211,-79.3],[-42.965,-79.477],[-42.945,-79.579],[-43.066,-79.891],[-43.267,-79.979],[-43.6,-79.974],[-43.742,-80.003],[-43.459,-80.123],[-43.528,-80.191],[-49.188,-80.643],[-49.63,-80.712],[-49.773,-80.784],[-54.163,-80.87],[-54.351,-80.76],[-54.347,-80.569],[-54.045,-80.487],[-53.394,-80.109],[-53.053,-80.175],[-52.807,-80.156],[-52.461,-80.067],[-52.357,-80.078],[-52.297,-80.141],[-51.184,-79.82],[-50.339,-79.48],[-50.295,-79.43],[-50.379,-79.338],[-50.733,-79.283],[-50.52,-79.104],[-50.503,-78.95],[-50.38,-78.923],[-50.242,-78.833],[-50.377,-78.781],[-50.142,-78.557],[-49.354,-78.222],[-49.081,-78.047],[-47.525,-77.825],[-48.31,-77.74],[-48.657,-77.773],[-49.679,-77.615],[-50.054,-77.46],[-50.104,-77.388],[-50.434,-77.252],[-50.121,-77.256],[-50.036,-77.221],[-50.406,-76.988],[-50.615,-77.006],[-50.71,-77.093],[-50.694,-77.178],[-51.59,-77.025],[-51.739,-76.939],[-52.003,-76.851],[-52.107,-76.878],[-52.576,-76.868],[-52.77,-76.835],[-54.317,-76.309],[-60.269,-75.185],[-60.663,-75.045],[-61.645,-74.837],[-61.461,-74.692],[-61.492,-74.633],[-61.429,-74.591],[-61.485,-74.571],[-61.408,-74.512],[-61.64,-74.514],[-61.995,-74.476]],[[-69.972,-78.809],[-69.398,-78.686],[-67.479,-78.363],[-67.038,-78.316],[-66.728,-78.384],[-67.481,-78.682],[-69.251,-79.21],[-69.687,-79.443],[-69.635,-79.518],[-69.732,-79.618],[-70.334,-79.68],[-70.984,-79.674],[-71.526,-79.624],[-71.735,-79.539],[-71.784,-79.444],[-71.668,-79.246],[-71.255,-79.06],[-70.544,-78.884],[-69.972,-78.809]],[[-68.161,-79.479],[-68.408,-79.464],[-68.549,-79.437],[-68.422,-79.333],[-68.033,-79.227],[-67.714,-79.214],[-67.475,-79.223],[-67.069,-79.268],[-67.24,-79.328],[-67.262,-79.453],[-67.434,-79.501],[-68.161,-79.479]],[[-67.719,-79.62],[-67.809,-79.546],[-67.688,-79.528],[-67.438,-79.56],[-66.979,-79.569],[-66.785,-79.608],[-66.014,-79.624],[-65.87,-79.738],[-65.579,-79.771],[-65.504,-79.954],[-65.989,-80.054],[-66.174,-80.078],[-66.32,-80.075],[-66.41,-79.973],[-66.904,-79.909],[-67.077,-79.762],[-67.719,-79.62]],[[-61.717,-80.069],[-61.684,-80.02],[-61.302,-79.996],[-61.246,-79.978],[-61.346,-79.951],[-61.343,-79.887],[-61.115,-79.862],[-61.026,-79.809],[-60.579,-79.741],[-59.873,-79.777],[-59.706,-79.875],[-59.788,-80.101],[-59.498,-80.115],[-59.322,-80.196],[-59.53,-80.208],[-59.734,-80.344],[-59.826,-80.733],[-60.125,-80.841],[-60.583,-80.948],[-62.023,-80.889],[-62.671,-80.834],[-62.94,-80.766],[-63.144,-80.595],[-63.715,-80.617],[-64.065,-80.65],[-64.268,-80.749],[-66.184,-80.442],[-66.591,-80.358],[-66.771,-80.294],[-66.588,-80.239],[-66.377,-80.222],[-66.217,-80.258],[-66.168,-80.346],[-65.98,-80.384],[-62.519,-80.373],[-61.633,-80.344],[-61.313,-80.307],[-61.194,-80.257],[-61.485,-80.244],[-61.598,-80.206],[-61.717,-80.069]],[[-30.029,-79.936],[-30.422,-80.011],[-30.844,-79.938],[-31.594,-79.888],[-31.824,-79.85],[-32,-79.732],[-31.68,-79.634],[-30.985,-79.818],[-30.841,-79.771],[-30.78,-79.647],[-30.66,-79.733],[-29.871,-79.823],[-29.614,-79.91],[-29.721,-79.93],[-30.029,-79.936]],[[-32.343,-79.674],[-32.515,-79.683],[-32.583,-79.658],[-32.377,-79.535],[-32.15,-79.53],[-31.933,-79.568],[-31.957,-79.604],[-32.343,-79.674]],[[-33.995,-79.279],[-33.934,-79.32],[-34.05,-79.357],[-36.601,-79.283],[-36.566,-79.209],[-36.048,-79.181],[-35.79,-79.149],[-35.535,-79.09],[-33.995,-79.279]]]}},
{"type":"Feature","properties":{},"geometry":{"type":"Polygon","coordinates":[[[155.158,-68.872],[155.206,-68.829],[155.138,-68.761],[154.991,-68.719],[154.875,-68.629],[154.769,-68.621],[154.638,-68.664],[154.987,-68.841],[155.146,-68.889],[155.158,-68.872]]]}},
{"type":"Feature","properties":{},"geometry":{"type":"Polygon","coordinates":[[[124.885,-66.531],[124.842,-66.506],[124.503,-66.551],[124.339,-66.515],[124.045,-66.543],[123.98,-66.608],[124.196,-66.601],[124.598,-66.708],[124.813,-66.695],[124.793,-66.656],[124.692,-66.638],[124.792,-66.625],[124.879,-66.58],[124.885,-66.531]]]}},
{"type":"Feature","properties":{},"geometry":{"type":"Polygon","coordinates":[[[-80.38,-73.308],[-80.412,-73.263],[-80.559,-73.356],[-80.336,-73.414],[-80.38,-73.308]]]}},
{"type":"Feature","properties":{},"geometry":{"type":"Polygon","coordinates":[[[-69.008,-70.034],[-69.105,-70.073],[-68.459,-70.683],[-68.451,-70.818],[-68.336,-70.856],[-68.228,-71.725],[-68.241,-71.822],[-68.543,-72.158],[-69.149,-72.427],[-69.209,-72.534],[-70.543,-72.664],[-70.731,-72.623],[-70.923,-72.613],[-71.846,-72.639],[-72.364,-72.67],[-72.331,-72.709],[-72.413,-72.738],[-72.413,-72.797],[-72.341,-72.883],[-72.397,-72.913],[-72.144,-72.966],[-72.114,-73.006],[-72.216,-73.133],[-72.358,-73.108],[-72.649,-73.147],[-72.913,-73.118],[-72.975,-73.142],[-73.194,-73.035],[-73.256,-73.084],[-73.558,-73.135],[-73.721,-73.296],[-73.975,-73.376],[-74.147,-73.315],[-74.134,-73.277],[-73.857,-73.126],[-74.237,-73.102],[-74.317,-73.069],[-74.522,-73.244],[-74.668,-73.275],[-74.467,-73.427],[-74.366,-73.464],[-74.452,-73.565],[-74.575,-73.611],[-75.901,-73.333],[-76.003,-73.288],[-76.096,-73.15],[-76.018,-73.085],[-75.898,-73.056],[-75.775,-73.054],[-75.506,-73.109],[-75.417,-73.052],[-75.276,-73.05],[-75.244,-73.009],[-75.439,-72.994],[-75.6,-72.953],[-75.726,-72.885],[-76.012,-72.788],[-76.063,-72.736],[-76.427,-72.664],[-76.432,-72.571],[-76.501,-72.528],[-76.597,-72.53],[-76.711,-72.571],[-77.142,-72.605],[-77.328,-72.576],[-77.326,-72.478],[-77.47,-72.415],[-77.629,-72.398],[-77.934,-72.488],[-78.126,-72.511],[-78.423,-72.479],[-78.505,-72.386],[-78.647,-72.324],[-78.956,-72.299],[-79.19,-72.346],[-79.264,-72.475],[-78.932,-72.536],[-78.749,-72.634],[-78.664,-72.728],[-78.73,-72.779],[-79.287,-72.872],[-79.339,-72.923],[-79.195,-73.016],[-78.988,-73.094],[-78.826,-73.117],[-78.616,-73.08],[-78.381,-72.993],[-77.367,-72.993],[-77.379,-73.057],[-77.458,-73.092],[-77.384,-73.158],[-77.48,-73.178],[-77.321,-73.213],[-77.396,-73.292],[-77.574,-73.319],[-77.625,-73.303],[-77.583,-73.259],[-77.699,-73.199],[-77.837,-73.174],[-77.848,-73.142],[-78.054,-73.131],[-78.326,-73.214],[-78.266,-73.312],[-78.147,-73.361],[-78.36,-73.4],[-78.911,-73.371],[-78.786,-73.507],[-78.408,-73.556],[-77.444,-73.488],[-77.136,-73.496],[-76.851,-73.46],[-76.765,-73.566],[-77.033,-73.718],[-77.135,-73.818],[-77.049,-73.844],[-76.755,-73.789],[-76.291,-73.805],[-75.916,-73.736],[-75.595,-73.711],[-75.293,-73.639],[-74.856,-73.658],[-74.594,-73.715],[-74.345,-73.684],[-73.996,-73.7],[-72.929,-73.448],[-72.381,-73.438],[-71.994,-73.379],[-71.698,-73.353],[-71.453,-73.355],[-71.017,-73.263],[-70.323,-73.274],[-69.969,-73.226],[-69.282,-73.17],[-68.821,-73.105],[-68,-72.936],[-67.667,-72.835],[-67.307,-72.611],[-66.828,-72.09],[-66.952,-71.897],[-67.46,-71.527],[-67.53,-71.285],[-67.505,-71.058],[-67.692,-70.686],[-67.888,-70.422],[-68.341,-70.072],[-68.428,-70.085],[-69.008,-70.034]]]}},
{"type":"Feature","properties":{},"geometry":{"type":"Polygon","coordinates":[[[153.138,-68.291],[152.874,-68.331],[151.952,-68.381],[152,-68.462],[151.902,-68.518],[151.816,-68.614],[151.254,-68.628],[151.126,-68.662],[151.139,-68.764],[151.289,-68.817],[151.448,-68.764],[151.562,-68.694],[152.545,-68.73],[152.814,-68.768],[153.082,-68.857],[153.34,-68.818],[153.496,-68.764],[153.705,-68.729],[153.767,-68.641],[153.79,-68.45],[153.62,-68.351],[153.522,-68.399],[153.451,-68.402],[153.138,-68.291]]]}},
{"type":"Feature","properties":{},"geometry":{"type":"Polygon","coordinates":[[[-73.427,-71.559],[-73.38,-71.528],[-73.592,-71.448],[-73.607,-71.36],[-73.656,-71.351],[-73.851,-71.4],[-74.026,-71.414],[-73.545,-71.573],[-73.479,-71.579],[-73.427,-71.559]]]}},
{"type":"Feature","properties":{},"geometry":{"type":"Polygon","coordinates":[[[134.67,-65.999],[134.623,-65.996],[134.561,-66.059],[134.503,-66.054],[134.515,-66.086],[134.361,-66.119],[134.202,-66.21],[134.064,-66.239],[134.179,-66.277],[134.29,-66.477],[134.398,-66.48],[134.77,-66.353],[134.971,-66.33],[135.352,-66.127],[136.041,-66.271],[136.028,-66.25],[135.799,-66.189],[135.764,-66.143],[135.524,-66.157],[135.34,-66.102],[134.994,-66.075],[134.936,-66.1],[134.838,-66.095],[134.67,-65.999]]]}},
{"type":"Feature","properties":{},"geometry":{"type":"Polygon","coordinates":[[[129.401,-66.861],[129.156,-66.936],[128.903,-66.968],[128.804,-67.03],[128.711,-67.021],[128.717,-66.99],[128.431,-67.029],[128.082,-67.025],[128.063,-67.047],[128.43,-67.119],[128.816,-67.08],[128.982,-67.098],[129.237,-67.042],[129.401,-66.861]]]}},
{"type":"Feature","properties":{},"geometry":{"type":"Polygon","coordinates":[[[-71.816,-71.822],[-72.259,-71.641],[-72.337,-71.632],[-72.928,-71.922],[-73.167,-71.905],[-73.41,-71.853],[-73.633,-71.835],[-73.83,-71.87],[-73.572,-71.981],[-73.537,-72.022],[-73.617,-72.051],[-73.277,-72.07],[-73.081,-72.131],[-72.969,-72.239],[-72.135,-72.331],[-71.605,-72.359],[-70.873,-72.366],[-70.428,-72.323],[-70.206,-72.228],[-70.424,-72.168],[-70.641,-72.17],[-71.178,-72.264],[-71.413,-72.284],[-71.661,-72.25],[-71.892,-72.153],[-71.898,-72.121],[-71.034,-72.035],[-70.891,-71.987],[-70.821,-71.907],[-71.355,-71.836],[-71.574,-71.851],[-71.816,-71.822]]]}},
{"type":"Feature","properties":{},"geometry":{"type":"Polygon","coordinates":[[[163.735,-74.564],[163.557,-74.417],[163.398,-74.382],[163.265,-74.426],[163.167,-74.602],[162.752,-74.736],[162.604,-74.823],[162.509,-75.181],[162.702,-75.152],[162.908,-75.179],[162.759,-75.103],[163.122,-75.045],[163.095,-75.006],[163.188,-75.048],[163.071,-75.139],[163.097,-75.19],[163.28,-75.176],[163.383,-75.118],[163.343,-75.092],[163.55,-75.119],[163.676,-75.028],[163.743,-74.881],[163.925,-74.886],[163.956,-74.865],[163.948,-74.833],[163.845,-74.833],[163.763,-74.803],[163.742,-74.712],[164.002,-74.629],[164.208,-74.608],[164.575,-74.699],[164.499,-74.545],[164.174,-74.523],[163.936,-74.567],[163.735,-74.564]]]}},
{"type":"Feature","properties":{},"geometry":{"type":"Polygon","coordinates":[[[38.235,-69.846],[38.271,-69.775],[38.088,-69.763],[38,-69.784],[38.144,-69.824],[38.499,-70.056],[38.885,-70.172],[38.902,-70.082],[38.754,-70.025],[38.73,-69.971],[38.799,-69.858],[38.619,-69.817],[38.526,-69.826],[38.388,-69.914],[38.235,-69.846]]]}},
{"type":"Feature","properties":{},"geometry":{"type":"Polygon","coordinates":[[[-149.046,-76.458],[-149.576,-76.379],[-149.64,-76.429],[-150.513,-76.501],[-150.576,-76.533],[-150.495,-76.569],[-150.017,-76.536],[-150.053,-76.569],[-150,-76.582],[-150.391,-76.693],[-150.177,-76.691],[-150.085,-76.735],[-150.233,-76.776],[-150.429,-76.782],[-150.403,-76.813],[-150.295,-76.861],[-150.067,-76.884],[-149.871,-76.875],[-149.79,-76.889],[-149.506,-77.002],[-149.416,-77.079],[-149.288,-77.093],[-149.231,-77.121],[-149.293,-77.137],[-149.729,-77.128],[-149.856,-77.099],[-150.462,-77.076],[-150.773,-76.988],[-150.865,-77.003],[-151.134,-76.938],[-151.701,-76.939],[-151.722,-76.963],[-151.619,-76.959],[-151.602,-76.979],[-151.827,-77.096],[-151.376,-77.17],[-151.329,-77.198],[-151.022,-77.22],[-150.499,-77.335],[-150.356,-77.349],[-150.397,-77.369],[-150.475,-77.374],[-151.345,-77.296],[-151.737,-77.227],[-151.847,-77.239],[-151.82,-77.198],[-151.98,-77.156],[-152.159,-77.161],[-152.356,-77.264],[-152.537,-77.261],[-152.536,-77.227],[-152.416,-77.208],[-152.455,-77.193],[-152.919,-77.168],[-152.959,-77.192],[-153.229,-77.222],[-153.423,-77.202],[-153.497,-77.157],[-153.454,-77.12],[-153.825,-77.08],[-154.525,-77.089],[-154.696,-77.066],[-154.894,-77.103],[-154.913,-77.124],[-153.91,-77.227],[-153.606,-77.31],[-153.461,-77.416],[-153.077,-77.442],[-151.998,-77.413],[-151.719,-77.426],[-150.956,-77.574],[-150.306,-77.731],[-150.084,-77.771],[-149.718,-77.797],[-149.589,-77.774],[-149.474,-77.715],[-149.126,-77.643],[-148.34,-77.551],[-148.156,-77.462],[-148.26,-77.413],[-148.744,-77.343],[-148.844,-77.284],[-148.778,-77.125],[-148.572,-77.105],[-147.73,-77.31],[-147.442,-77.321],[-146.928,-77.26],[-146.391,-77.472],[-145.677,-77.488],[-145.601,-77.455],[-145.714,-77.338],[-145.794,-77.33],[-145.808,-77.273],[-145.516,-77.199],[-145.753,-77.103],[-145.967,-77.069],[-145.934,-77.029],[-145.629,-76.954],[-145.676,-76.797],[-145.751,-76.749],[-146.777,-76.507],[-147.34,-76.438],[-148.601,-76.493],[-149.046,-76.458]],[[-147.135,-76.532],[-146.878,-76.563],[-146.79,-76.633],[-146.908,-76.714],[-147.221,-76.671],[-147.355,-76.619],[-147.279,-76.553],[-147.135,-76.532]],[[-147.77,-76.577],[-147.579,-76.663],[-147.73,-76.653],[-148.001,-76.577],[-147.9,-76.558],[-147.77,-76.577]],[[-149.239,-76.818],[-149.469,-76.757],[-149.333,-76.717],[-148.928,-76.73],[-148.663,-76.721],[-148.384,-76.744],[-148.321,-76.772],[-148.371,-76.795],[-148.67,-76.802],[-148.815,-76.841],[-148.984,-76.845],[-149.239,-76.818]],[[-147.087,-76.837],[-146.867,-76.837],[-146.244,-76.883],[-146.164,-76.949],[-146.607,-76.961],[-146.981,-77.006],[-147.079,-76.993],[-147.087,-76.837]],[[-148.704,-76.936],[-148.509,-76.955],[-148.44,-76.977],[-148.474,-76.998],[-149.015,-77.019],[-149.245,-76.993],[-149.303,-76.916],[-149.238,-76.9],[-148.704,-76.936]],[[-149.439,-77.371],[-149.662,-77.301],[-149.519,-77.275],[-149.375,-77.28],[-149.218,-77.336],[-148.929,-77.387],[-149.439,-77.371]]]}},
{"type":"Feature","properties":{},"geometry":{"type":"Polygon","coordinates":[[[165.153,-74.125],[165.047,-73.981],[164.936,-73.972],[164.906,-74.003],[164.776,-74.029],[164.836,-74.083],[165.06,-74.133],[164.999,-74.142],[165.084,-74.167],[165.153,-74.125]]]}},
{"type":"Feature","properties":{},"geometry":{"type":"Polygon","coordinates":[[[47.559,-67.52],[47.441,-67.408],[47.399,-67.406],[47.231,-67.468],[47.117,-67.573],[47.49,-67.728],[47.703,-67.716],[47.958,-67.66],[48.21,-67.699],[48.322,-67.785],[48.322,-67.918],[48.375,-67.988],[48.551,-67.926],[48.648,-67.794],[48.63,-67.526],[48.572,-67.522],[48.452,-67.575],[48.302,-67.565],[48.114,-67.624],[47.98,-67.62],[47.838,-67.557],[47.605,-67.523],[47.538,-67.542],[47.559,-67.52]]]}},
{"type":"Feature","properties":{},"geometry":{"type":"Polygon","coordinates":[[[-143.21,-75.345],[-143.587,-75.39],[-144.477,-75.359],[-145.004,-75.418],[-145.315,-75.389],[-145.407,-75.405],[-145.465,-75.375],[-145.543,-75.393],[-145.568,-75.371],[-145.817,-75.425],[-145.824,-75.51],[-145.417,-75.588],[-145.238,-75.711],[-145.348,-75.716],[-145.541,-75.693],[-146.043,-75.612],[-146.151,-75.574],[-146.122,-75.547],[-146.43,-75.578],[-146.543,-75.568],[-146.639,-75.612],[-146.995,-75.65],[-147.242,-75.742],[-147.283,-75.72],[-147.78,-75.723],[-147.842,-75.766],[-147.941,-75.718],[-148.39,-75.75],[-148.41,-75.769],[-148.146,-76.013],[-148.294,-76.106],[-147.86,-76.131],[-146.817,-76.318],[-145.886,-76.424],[-145.687,-76.429],[-145.442,-76.409],[-145.642,-76.326],[-146.383,-76.1],[-146.323,-76.02],[-145.988,-75.889],[-145.106,-75.879],[-144.721,-75.832],[-144.221,-75.731],[-143.574,-75.564],[-143.022,-75.543],[-142.417,-75.498],[-142.481,-75.432],[-143.21,-75.345]],[[-147.151,-76.197],[-147.345,-76.147],[-147.421,-76.09],[-147.361,-76.063],[-146.949,-76.098],[-146.69,-76.246],[-146.895,-76.261],[-147.151,-76.197]]]}},
{"type":"Feature","properties":{},"geometry":{"type":"Polygon","coordinates":[[[169.775,-72.534],[169.44,-72.487],[169.072,-72.469],[168.719,-72.384],[168.428,-72.383],[168.82,-72.552],[169.804,-72.724],[169.916,-72.685],[170.143,-72.702],[170.176,-72.667],[170.094,-72.63],[170.168,-72.616],[170.139,-72.58],[170.048,-72.601],[169.775,-72.534]]]}},
{"type":"Feature","properties":{},"geometry":{"type":"Polygon","coordinates":[[[166.883,-73.011],[166.453,-72.936],[166.467,-72.998],[166.834,-73.224],[167.616,-73.337],[167.709,-73.394],[167.534,-73.447],[167.296,-73.44],[167.251,-73.456],[167.547,-73.532],[167.953,-73.54],[168.398,-73.598],[168.54,-73.574],[168.629,-73.482],[168.565,-73.447],[168.617,-73.435],[168.566,-73.355],[168.667,-73.354],[168.966,-73.505],[169.154,-73.461],[169.185,-73.383],[168.992,-73.36],[169.109,-73.311],[169.008,-73.27],[168.994,-73.186],[168.736,-73.091],[168.381,-73.066],[168.204,-73.13],[167.853,-73.122],[167.156,-73.147],[166.883,-73.011]]]}},
{"type":"Feature","properties":{},"geometry":{"type":"Polygon","coordinates":[[[34.217,-68.783],[34.074,-68.885],[33.772,-69.02],[33.814,-69.099],[34.059,-69.111],[34.596,-69.095],[34.749,-69.168],[35.131,-69.487],[35.225,-69.637],[35.357,-69.681],[35.568,-69.66],[36.018,-69.662],[36.586,-69.638],[36.719,-69.652],[36.856,-69.726],[37.115,-69.81],[37.31,-69.763],[37.266,-69.711],[37.29,-69.661],[37.582,-69.471],[38.063,-69.284],[37.953,-69.276],[37.641,-69.329],[37.108,-69.606],[37.061,-69.678],[36.982,-69.635],[36.809,-69.618],[36.82,-69.602],[36.523,-69.546],[36.485,-69.471],[36.376,-69.417],[36.605,-69.435],[36.711,-69.417],[36.655,-69.359],[36.515,-69.301],[36.18,-69.249],[35.845,-69.148],[35.697,-69.155],[35.651,-69.176],[35.668,-69.204],[35.639,-69.202],[35.453,-69.095],[35.078,-69.033],[35.023,-69.071],[34.93,-69.071],[34.878,-69.048],[34.904,-69.028],[34.843,-68.88],[34.763,-68.876],[34.689,-68.818],[34.521,-68.786],[34.217,-68.783]]]}},
{"type":"Feature","properties":{},"geometry":{"type":"Polygon","coordinates":[[[-156.752,-77.218],[-156.797,-77.171],[-156.961,-77.15],[-157.11,-77.08],[-157.156,-77.033],[-157.097,-77.002],[-157.184,-76.967],[-157.261,-76.965],[-157.628,-77.046],[-157.563,-77.114],[-157.649,-77.157],[-157.465,-77.231],[-157.139,-77.242],[-156.752,-77.218]]]}},
{"type":"Feature","properties":{},"geometry":{"type":"Polygon","coordinates":[[[164.496,-77.853],[164.458,-77.732],[164.328,-77.674],[164.192,-77.657],[163.843,-77.72],[164.045,-77.775],[164.036,-77.853],[164.426,-77.889],[164.496,-77.853]]]}},
{"type":"Feature","properties":{},"geometry":{"type":"Polygon","coordinates":[[[56.366,-67.212],[56.562,-67.116],[56.931,-67.056],[56.964,-66.977],[57.1,-66.955],[57.02,-66.913],[56.702,-66.903],[56.644,-66.795],[56.808,-66.745],[56.781,-66.705],[56.294,-66.603],[56.146,-66.626],[56.292,-66.721],[56.453,-66.78],[56.48,-66.859],[56.391,-66.974],[55.803,-67.199],[56.155,-67.265],[56.366,-67.212]]]}},
{"type":"Feature","properties":{},"geometry":{"type":"Polygon","coordinates":[[[166.858,-73.584],[166.856,-73.54],[166.429,-73.527],[166.159,-73.534],[165.86,-73.593],[165.971,-73.631],[166.073,-73.71],[166.294,-73.725],[166.404,-73.755],[166.381,-73.778],[166.447,-73.797],[166.801,-73.737],[166.661,-73.666],[166.59,-73.669],[166.613,-73.651],[166.505,-73.652],[166.595,-73.607],[166.654,-73.598],[166.725,-73.646],[166.998,-73.667],[167.055,-73.634],[166.877,-73.611],[166.858,-73.584]]]}},
{"type":"Feature","properties":{},"geometry":{"type":"Polygon","coordinates":[[[161.597,-70.155],[161.567,-70.139],[161.147,-70.179],[161.122,-70.211],[161.229,-70.251],[161.113,-70.304],[161.029,-70.312],[161.424,-70.827],[161.625,-70.916],[161.916,-70.907],[162.189,-71.04],[162.278,-71.022],[162.287,-70.969],[162.04,-70.625],[162.031,-70.435],[161.968,-70.4],[161.935,-70.316],[161.808,-70.291],[161.759,-70.323],[161.763,-70.287],[161.663,-70.246],[161.64,-70.21],[161.607,-70.212],[161.597,-70.155]]]}},
{"type":"Feature","properties":{},"geometry":{"type":"Polygon","coordinates":[[[-126.496,-73.7],[-126.711,-73.654],[-126.838,-73.657],[-127.006,-73.726],[-127.122,-73.734],[-127.232,-73.707],[-127.311,-73.838],[-127.496,-73.93],[-127.605,-74.035],[-127.958,-74.154],[-128.258,-74.317],[-129.978,-74.414],[-130.948,-74.38],[-130.967,-74.515],[-131.067,-74.584],[-131.179,-74.605],[-131.598,-74.554],[-131.841,-74.543],[-132.025,-74.489],[-132.146,-74.42],[-132.375,-74.408],[-132.391,-74.442],[-132.546,-74.498],[-132.857,-74.462],[-132.837,-74.43],[-132.886,-74.429],[-133.35,-74.497],[-134.487,-74.541],[-134.6,-74.607],[-134.754,-74.618],[-134.869,-74.694],[-134.117,-74.83],[-133.796,-74.855],[-133.475,-74.852],[-132.992,-74.806],[-132.351,-74.789],[-132.049,-74.766],[-131.707,-74.811],[-130.857,-74.826],[-130.196,-74.891],[-129.791,-74.891],[-129.238,-74.829],[-128.941,-74.82],[-127.863,-74.719],[-127.02,-74.698],[-126.384,-74.743],[-125.353,-74.715],[-124.312,-74.736],[-123.889,-74.773],[-121.544,-74.75],[-119.677,-74.655],[-119.422,-74.622],[-119.022,-74.518],[-118.803,-74.422],[-118.656,-74.393],[-118.342,-74.382],[-117.806,-74.403],[-117.068,-74.473],[-116.433,-74.447],[-115.223,-74.487],[-115.105,-74.455],[-114.883,-74.12],[-115.125,-74.094],[-115.737,-74.066],[-116.123,-73.957],[-116.166,-73.914],[-116.585,-74.056],[-116.609,-74.069],[-116.514,-74.095],[-116.571,-74.126],[-116.739,-74.165],[-117.23,-74.193],[-117.363,-74.161],[-117.398,-74.122],[-117.376,-74.083],[-117.296,-74.062],[-118.663,-73.954],[-118.86,-73.914],[-118.889,-73.887],[-119.059,-73.998],[-119.549,-74.11],[-119.821,-74.12],[-119.905,-74.082],[-119.662,-73.989],[-119.779,-73.844],[-119.897,-73.828],[-120.076,-73.844],[-120.376,-73.798],[-120.477,-73.8],[-120.378,-73.856],[-120.272,-73.989],[-120.99,-74.157],[-121.054,-74.26],[-121.002,-74.326],[-122.287,-74.403],[-122.859,-74.343],[-122.938,-74.302],[-122.956,-74.24],[-122.765,-74.219],[-122.881,-74.099],[-122.625,-73.966],[-122.992,-73.844],[-124.075,-73.863],[-124.042,-73.88],[-124.152,-73.944],[-124.129,-73.971],[-123.932,-74.008],[-123.8,-74.076],[-123.837,-74.226],[-123.982,-74.256],[-124.199,-74.226],[-124.873,-74.208],[-125.09,-74.182],[-125.421,-74.07],[-125.683,-74.035],[-125.887,-73.955],[-126.244,-73.891],[-126.472,-73.812],[-126.496,-73.7]],[[-128.133,-74.327],[-128.043,-74.312],[-127.853,-74.332],[-127.486,-74.405],[-127.23,-74.425],[-127.145,-74.48],[-127.232,-74.578],[-127.366,-74.623],[-127.518,-74.641],[-127.817,-74.575],[-128.096,-74.466],[-128.133,-74.327]]]}},
{"type":"Feature","properties":{},"geometry":{"type":"Polygon","coordinates":[[[163.903,-70.511],[163.692,-70.482],[163.632,-70.535],[163.653,-70.563],[163.694,-70.543],[163.802,-70.584],[163.678,-70.59],[163.744,-70.64],[163.998,-70.637],[164.214,-70.569],[164.036,-70.542],[163.988,-70.55],[163.903,-70.511]]]}},
{"type":"Feature","properties":{},"geometry":{"type":"Polygon","coordinates":[[[30.901,-69.043],[30.748,-69.053],[30.663,-69.097],[30.695,-69.112],[30.612,-69.103],[30.547,-69.124],[30.492,-69.213],[30.537,-69.258],[30.49,-69.269],[30.157,-69.251],[29.993,-69.208],[29.742,-69.293],[29.632,-69.301],[29.392,-69.394],[29.265,-69.395],[29.243,-69.418],[29.322,-69.473],[29.29,-69.48],[29.346,-69.501],[29.285,-69.593],[29.356,-69.634],[29.242,-69.639],[29.316,-69.676],[29.137,-69.723],[28.939,-69.744],[28.815,-69.717],[28.701,-69.75],[28.561,-69.675],[28.498,-69.684],[28.381,-69.73],[28.442,-69.753],[28.39,-69.75],[28.431,-69.785],[28.347,-69.816],[28.162,-69.839],[28.034,-69.822],[27.973,-69.851],[28.138,-69.914],[27.75,-69.97],[27.51,-69.97],[27.37,-69.94],[27.07,-70.013],[26.792,-69.942],[26.495,-69.929],[26.404,-69.96],[26.454,-69.977],[26.553,-69.968],[26.52,-70.005],[26.624,-69.986],[26.594,-70.011],[26.676,-70.037],[26.632,-70.052],[26.694,-70.094],[26.669,-70.107],[26.875,-70.33],[26.793,-70.419],[26.609,-70.412],[26.47,-70.448],[26.005,-70.373],[25.962,-70.288],[25.888,-70.272],[25.921,-70.19],[25.874,-70.178],[25.612,-70.184],[25.785,-70.14],[25.86,-70.099],[25.837,-70.047],[25.747,-70.026],[25.556,-70.041],[25.205,-70.003],[25.112,-70.023],[25.145,-70.037],[25.105,-70.047],[24.844,-70.067],[24.803,-70.08],[24.853,-70.108],[24.808,-70.133],[24.813,-70.183],[24.927,-70.243],[24.712,-70.19],[24.661,-70.204],[24.65,-70.237],[24.738,-70.275],[24.632,-70.319],[24.626,-70.345],[24.311,-70.277],[24.252,-70.285],[24.24,-70.311],[23.967,-70.276],[23.917,-70.304],[23.793,-70.309],[23.652,-70.191],[23.16,-70.135],[23.061,-70.077],[22.954,-70.103],[22.727,-70.095],[22.723,-70.168],[22.666,-70.207],[22.299,-70.256],[21.772,-70.163],[21.271,-70.004],[21.443,-69.94],[21.341,-69.896],[21.381,-69.873],[21.19,-69.815],[20.663,-69.802],[19.912,-69.723],[19.711,-69.76],[19.724,-69.789],[19.643,-69.775],[19.613,-69.795],[19.646,-69.82],[19.567,-69.83],[19.923,-69.953],[19.35,-69.929],[19.03,-69.991],[18.821,-69.929],[17.787,-69.719],[17.731,-69.651],[17.659,-69.704],[17.463,-69.705],[17.336,-69.739],[16.967,-69.698],[16.586,-69.727],[16.625,-69.75],[16.315,-69.844],[16.159,-70.072],[15.845,-69.982],[15.614,-69.939],[15.579,-69.846],[15.504,-69.805],[15.561,-69.783],[15.506,-69.765],[15.574,-69.658],[15.418,-69.619],[15.442,-69.575],[15.504,-69.569],[15.464,-69.525],[14.861,-69.465],[14.207,-69.494],[13.735,-69.58],[13.853,-69.635],[13.714,-69.626],[13.747,-69.64],[13.716,-69.647],[13.782,-69.662],[13.742,-69.657],[13.581,-69.737],[13.269,-69.672],[13.27,-69.76],[13.039,-69.816],[12.862,-69.932],[12.879,-69.97],[12.957,-69.955],[12.93,-70.009],[12.996,-70.056],[13.066,-70.054],[13.298,-70.23],[13.823,-70.343],[14.492,-70.3],[15.064,-70.295],[15.563,-70.331],[15.807,-70.324],[16.025,-70.193],[16.381,-70.145],[16.585,-70.204],[16.709,-70.397],[18.125,-70.54],[18.232,-70.518],[18.433,-70.29],[18.627,-70.269],[18.877,-70.201],[19.009,-70.212],[19.196,-70.293],[19.027,-70.674],[19.265,-70.902],[19.409,-70.917],[20.128,-70.918],[21.071,-70.843],[21.337,-70.495],[21.705,-70.259],[21.962,-70.3],[22.366,-70.475],[22.396,-70.561],[22.234,-70.643],[22.278,-70.696],[22.445,-70.74],[22.979,-70.81],[23.15,-70.796],[23.407,-70.723],[23.665,-70.575],[23.804,-70.405],[24.024,-70.413],[24.236,-70.449],[24.386,-70.537],[24.386,-70.704],[24.757,-70.892],[25.187,-70.971],[25.65,-70.991],[25.974,-71.037],[26.499,-71.019],[26.754,-70.967],[27.207,-70.911],[27.698,-70.772],[28.386,-70.682],[28.911,-70.583],[29.464,-70.406],[30.003,-70.3],[31.063,-70.225],[31.379,-70.226],[32.159,-70.1],[32.621,-70.001],[32.81,-69.909],[32.989,-69.624],[32.903,-69.379],[32.576,-69.083],[32.464,-69.12],[32.056,-69.142],[31.589,-69.092],[31.459,-69.137],[30.901,-69.043]]]}},
{"type":"Feature","properties":{},"geometry":{"type":"Polygon","coordinates":[[[78.228,-68.756],[78.489,-68.625],[77.832,-68.686],[77.876,-68.719],[78.088,-68.737],[78.141,-68.812],[78.228,-68.756]]]}},
{"type":"Feature","properties":{},"geometry":{"type":"Polygon","coordinates":[[[-124.592,-73.687],[-125.226,-73.621],[-125.314,-73.628],[-125.276,-73.69],[-125.612,-73.711],[-125.723,-73.703],[-125.828,-73.718],[-125.86,-73.749],[-125.857,-73.78],[-125.674,-73.822],[-125.327,-73.796],[-124.993,-73.83],[-124.694,-73.75],[-124.556,-73.739],[-124.592,-73.687]]]}},
{"type":"Feature","properties":{},"geometry":{"type":"Polygon","coordinates":[[[86.035,-66.301],[85.834,-66.328],[85.687,-66.392],[85.389,-66.428],[85.137,-66.517],[85.328,-66.612],[85.222,-66.643],[85.136,-66.637],[85.08,-66.604],[85.073,-66.653],[85.024,-66.669],[84.95,-66.617],[84.76,-66.571],[84.553,-66.569],[84.381,-66.638],[84.08,-66.666],[83.96,-66.71],[84.004,-66.755],[83.957,-66.797],[84.075,-66.805],[84.138,-66.845],[84.118,-66.9],[84.503,-66.924],[84.469,-66.937],[84.498,-66.966],[83.803,-67.02],[83.559,-67.082],[83.582,-67.12],[83.53,-67.112],[83.481,-67.164],[83.318,-67.147],[82.617,-67.248],[82.326,-67.212],[82.169,-67.218],[82.029,-67.265],[81.716,-67.3],[81.708,-67.329],[81.768,-67.357],[81.67,-67.379],[81.545,-67.465],[81.343,-67.506],[81.402,-67.625],[81.319,-67.698],[81.38,-67.775],[81.355,-67.803],[82.017,-67.69],[82.273,-67.692],[82.607,-67.613],[83.304,-67.603],[83.494,-67.441],[83.904,-67.292],[84.161,-67.244],[84.485,-67.115],[84.748,-67.102],[85.429,-67.161],[85.711,-67.161],[86.118,-67.055],[86.75,-67.037],[87.085,-66.94],[87.98,-66.788],[88.314,-66.817],[88.763,-66.793],[88.634,-66.727],[88.55,-66.716],[88.534,-66.704],[88.601,-66.681],[88.333,-66.569],[87.866,-66.54],[87.342,-66.431],[86.824,-66.385],[86.713,-66.398],[86.662,-66.363],[86.437,-66.312],[86.209,-66.322],[86.035,-66.301]],[[86.278,-66.697],[86.383,-66.675],[86.652,-66.718],[86.542,-66.767],[86.427,-66.792],[86.337,-66.788],[86.232,-66.733],[86.278,-66.697]],[[85.553,-66.728],[85.806,-66.775],[85.938,-66.894],[85.822,-66.953],[85.65,-66.98],[85.359,-66.854],[85.314,-66.776],[85.34,-66.723],[85.553,-66.728]]]}},
{"type":"Feature","properties":{},"geometry":{"type":"Polygon","coordinates":[[[-140.874,-75.746],[-141.343,-75.479],[-141.317,-75.422],[-141.363,-75.406],[-141.992,-75.441],[-142.034,-75.546],[-141.506,-75.69],[-141.135,-75.746],[-140.874,-75.746]]]}},
{"type":"Feature","properties":{},"geometry":{"type":"Polygon","coordinates":[[[171.269,-77.485],[170.049,-77.447],[169.999,-77.485],[169.932,-77.489],[169.449,-77.452],[169.294,-77.471],[169.353,-77.525],[169.117,-77.561],[168.755,-77.653],[168.519,-77.681],[168.323,-77.683],[167.918,-77.644],[167.392,-77.649],[167.279,-77.703],[166.766,-77.839],[166.84,-77.883],[166.709,-77.912],[165.843,-77.823],[165.303,-77.883],[165.186,-77.971],[164.788,-78.05],[164.376,-78.06],[164.108,-78.147],[163.978,-78.224],[164.297,-78.236],[164.628,-78.316],[165.05,-78.226],[165.418,-78.042],[165.524,-78.064],[165.663,-78.306],[166.209,-78.452],[166.801,-78.522],[167.058,-78.518],[167.13,-78.606],[167.049,-78.686],[166.525,-78.695],[166.117,-78.571],[164.635,-78.603],[164.301,-78.63],[163.902,-78.717],[162.895,-78.845],[162.639,-78.898],[161.974,-78.694],[161.757,-78.545],[161.669,-78.536],[161.51,-78.571],[161.502,-78.677],[161.951,-78.968],[161.951,-79.03],[161.864,-79.061],[161.737,-79.06],[161.546,-79.015],[161.191,-78.979],[160.874,-79.05],[160.483,-79.201],[160.67,-79.359],[160.646,-79.427],[160.209,-79.554],[159.976,-79.586],[160.083,-79.633],[160.323,-79.636],[160.346,-79.691],[160.265,-79.737],[159.872,-79.79],[159.897,-79.859],[160.111,-79.892],[160.387,-79.88],[160.558,-79.93],[160.559,-80.011],[160.179,-80.088],[158.767,-80.293],[158.56,-80.349],[158.574,-80.423],[159.065,-80.443],[160.542,-80.425],[160.637,-80.45],[160.521,-80.583],[160.601,-80.637],[160.823,-80.674],[160.83,-80.73],[160.502,-80.779],[160.26,-80.787],[160.276,-80.847],[160.717,-80.907],[160.717,-81.2],[160.479,-81.27],[160.47,-81.341],[160.908,-81.39],[161.582,-81.61],[161.73,-81.61],[161.996,-81.653],[162.577,-81.832],[162.821,-81.866],[162.854,-81.921],[163.602,-82.121],[163.68,-82.187],[162.427,-82.314],[161.167,-82.408],[161.283,-82.49],[162.644,-82.482],[163.012,-82.535],[163.175,-82.519],[163.268,-82.463],[164.001,-82.397],[164.747,-82.354],[164.98,-82.385],[166.446,-82.722],[166.957,-82.765],[167.116,-82.801],[167.297,-82.986],[167.602,-83.047],[167.827,-83.031],[168.092,-82.975],[168.276,-82.987],[168.607,-83.065],[168.24,-83.23],[167.973,-83.243],[167.674,-83.231],[167.658,-83.272],[168.11,-83.362],[169.838,-83.399],[170.332,-83.479],[170.817,-83.436],[171.036,-83.448],[171.221,-83.475],[171.289,-83.555],[171.917,-83.644],[172.45,-83.675],[172.874,-83.673],[173.397,-83.759],[173.662,-83.761],[173.822,-83.81],[175.011,-83.839],[175.323,-83.94],[175.606,-83.968],[175.911,-83.973],[177.581,-84.075],[179.403,-84.206],[180,-84.352],[180,-83.671],[180,-82.968],[180,-82.264],[180,-81.561],[180,-80.858],[180,-80.155],[180,-79.452],[180,-78.749],[180,-78.046],[180,-77.874],[176.232,-77.7],[176.048,-77.635],[171.269,-77.485]],[[167.422,-78.006],[167.498,-77.992],[167.594,-78.022],[167.643,-78.141],[167.517,-78.216],[167.377,-78.249],[166.936,-78.222],[166.626,-78.284],[166.285,-78.306],[166.122,-78.275],[166.013,-78.131],[166.013,-78.102],[166.111,-78.09],[166.567,-78.148],[166.76,-78.198],[166.864,-78.196],[167.138,-78.13],[167.422,-78.006]]]}},
{"type":"Feature","properties":{},"geometry":{"type":"Polygon","coordinates":[[[-157.848,-78.074],[-158.286,-77.951],[-158.469,-77.815],[-158.735,-77.874],[-158.775,-77.904],[-163.06,-78.581],[-163.786,-78.601],[-164.712,-78.565],[-164.984,-78.611],[-176.915,-78.269],[-176.86,-78.121],[-180,-77.874],[-180,-84.212],[-180,-84.352],[-178.39,-84.338],[-178.069,-84.352],[-177.73,-84.395],[-176.289,-84.418],[-175.875,-84.51],[-175.381,-84.48],[-174.663,-84.463],[-171.704,-84.542],[-168.668,-84.684],[-168.049,-84.729],[-167.492,-84.834],[-166.911,-84.819],[-163.464,-84.901],[-162.933,-84.901],[-160.821,-84.987],[-157.128,-85.186],[-156.459,-85.186],[-156.988,-84.982],[-157.454,-84.912],[-157.15,-84.891],[-156.49,-84.889],[-156.621,-84.84],[-156.986,-84.811],[-158.303,-84.778],[-163.569,-84.529],[-164.114,-84.445],[-164.917,-84.431],[-165.135,-84.41],[-165.185,-84.37],[-163.899,-84.353],[-163.765,-84.324],[-163.821,-84.291],[-164.685,-84.155],[-164.503,-84.072],[-164.124,-84.054],[-164.011,-84.016],[-164.083,-83.946],[-164.951,-83.806],[-165.536,-83.757],[-165.922,-83.79],[-167.553,-83.811],[-167.801,-83.791],[-169.168,-83.45],[-171.188,-83.256],[-174.066,-82.9],[-174.236,-82.793],[-173.071,-82.916],[-172.852,-82.917],[-172.593,-82.884],[-172.392,-82.893],[-171.821,-82.847],[-171.031,-82.943],[-169.441,-83.096],[-168.418,-83.229],[-168.191,-83.213],[-168.055,-83.227],[-166.217,-83.201],[-165.619,-83.216],[-164.916,-83.29],[-164.446,-83.468],[-163.733,-83.373],[-163.111,-83.329],[-162.574,-83.411],[-162.197,-83.519],[-160.595,-83.49],[-159.924,-83.495],[-159.444,-83.543],[-157.428,-83.346],[-157.028,-83.234],[-157.589,-83.187],[-157.68,-83.129],[-157.522,-83.107],[-155.459,-82.981],[-155.15,-82.858],[-153.822,-82.669],[-153.399,-82.586],[-153.01,-82.45],[-154.717,-81.941],[-154.188,-81.811],[-153.957,-81.7],[-154.485,-81.566],[-154.908,-81.51],[-157.033,-81.319],[-156.528,-81.162],[-155.921,-81.133],[-152.035,-81.029],[-148.123,-80.901],[-148.023,-80.836],[-148.543,-80.76],[-148.984,-80.742],[-149.147,-80.719],[-149.214,-80.604],[-150.133,-80.51],[-150.516,-80.41],[-150.575,-80.354],[-150.435,-80.211],[-150.221,-80.15],[-149.578,-80.106],[-148.766,-80.108],[-148.317,-80.071],[-148.434,-79.93],[-148.296,-79.907],[-148.129,-79.908],[-148.083,-79.857],[-148.177,-79.776],[-148.417,-79.731],[-149.051,-79.657],[-150.491,-79.546],[-151.048,-79.46],[-151.636,-79.318],[-152.091,-79.242],[-152.053,-79.193],[-152.138,-79.116],[-152.244,-79.103],[-152.701,-79.135],[-153.518,-79.117],[-154.518,-79.047],[-155.21,-78.965],[-156.115,-78.745],[-156.469,-78.635],[-156.208,-78.559],[-155.92,-78.51],[-154.716,-78.398],[-154.538,-78.359],[-154.293,-78.259],[-154.695,-78.217],[-155.037,-78.221],[-155.342,-78.192],[-156.569,-78.186],[-157.267,-78.2],[-157.848,-78.074]],[[-160.807,-79.812],[-161.866,-79.704],[-163.712,-79.442],[-164.226,-79.321],[-164.282,-79.246],[-164.126,-78.995],[-163.815,-78.929],[-163.66,-78.856],[-163.345,-78.78],[-163.256,-78.722],[-162.873,-78.725],[-162.39,-78.76],[-161.643,-78.901],[-159.684,-79.402],[-159.051,-79.695],[-159.053,-79.807],[-160.302,-79.844],[-160.807,-79.812]],[[-155.751,-79.83],[-155.674,-79.766],[-154.535,-79.936],[-154.025,-79.988],[-153.93,-80.033],[-154.349,-80.026],[-154.942,-79.966],[-155.045,-79.9],[-155.751,-79.83]],[[-163.253,-81.482],[-163.766,-81.445],[-163.951,-81.391],[-163.869,-81.324],[-163.201,-81.281],[-162.457,-81.313],[-160.938,-81.464],[-160.617,-81.522],[-160.467,-81.589],[-160.571,-81.598],[-163.253,-81.482]],[[-158.154,-82.058],[-158.989,-81.779],[-158.347,-81.9],[-158.261,-81.947],[-157.835,-82.031],[-158.076,-82.112],[-158.154,-82.058]],[[-163.796,-82.843],[-162.799,-82.865],[-162.411,-82.899],[-161.635,-83.027],[-161.828,-83.043],[-161.994,-83.119],[-162.305,-83.142],[-163.047,-83.097],[-163.552,-82.988],[-163.796,-82.843]]]}}
]}
