{"type":"FeatureCollection","features":[
{"type":"Feature","properties":{"name":"Arctic Ocean","kind":"ocean","rank":0,"minzoom":1},"geometry":{"type":"Point","coordinates":[-173.17,74.62]}},
{"type":"Feature","properties":{"name":"Southern Ocean","kind":"ocean","rank":0,"minzoom":1},"geometry":{"type":"Point","coordinates":[-108.77,-66.24]}},
{"type":"Feature","properties":{"name":"North Atlantic Ocean","kind":"ocean","rank":0,"minzoom":1},"geometry":{"type":"Point","coordinates":[-30.45,51.87]}},
{"type":"Feature","properties":{"name":"North Pacific Ocean","kind":"ocean","rank":0,"minzoom":1},"geometry":{"type":"Point","coordinates":[-145.78,37.44]}},
{"type":"Feature","properties":{"name":"South Pacific Ocean","kind":"ocean","rank":0,"minzoom":1},"geometry":{"type":"Point","coordinates":[-115.92,-30.08]}},
{"type":"Feature","properties":{"name":"Indian Ocean","kind":"ocean","rank":0,"minzoom":1},"geometry":{"type":"Point","coordinates":[84.94,-27.13]}},
{"type":"Feature","properties":{"name":"South Atlantic Ocean","kind":"ocean","rank":0,"minzoom":1},"geometry":{"type":"Point","coordinates":[-14.04,-34.27]}},
{"type":"Feature","properties":{"name":"Black Sea","kind":"sea","rank":1,"minzoom":2},"geometry":{"type":"Point","coordinates":[31.24,43.43]}},
{"type":"Feature","properties":{"name":"Philippine Sea","kind":"sea","rank":1,"minzoom":2},"geometry":{"type":"Point","coordinates":[133.02,18.02]}},
{"type":"Feature","properties":{"name":"Tasman Sea","kind":"sea","rank":1,"minzoom":2},"geometry":{"type":"Point","coordinates":[159.7,-39.72]}},
{"type":"Feature","properties":{"name":"Bay of Bengal","kind":"bay","rank":1,"minzoom":2},"geometry":{"type":"Point","coordinates":[86.37,12.46]}},
{"type":"Feature","properties":{"name":"South China Sea","kind":"sea","rank":1,"minzoom":2},"geometry":{"type":"Point","coordinates":[114.72,14.01]}},
{"type":"Feature","properties":{"name":"Arabian Sea","kind":"sea","rank":1,"minzoom":2},"geometry":{"type":"Point","coordinates":[63.28,13.24]}},
{"type":"Feature","properties":{"name":"Beaufort Sea","kind":"sea","rank":1,"minzoom":2},"geometry":{"type":"Point","coordinates":[-133.67,72.15]}},
{"type":"Feature","properties":{"name":"Caribbean Sea","kind":"sea","rank":1,"minzoom":2},"geometry":{"type":"Point","coordinates":[-78.73,13.76]}},
{"type":"Feature","properties":{"name":"Gulf of Mexico","kind":"gulf","rank":1,"minzoom":2},"geometry":{"type":"Point","coordinates":[-92.52,25.19]}},
{"type":"Feature","properties":{"name":"Labrador Sea","kind":"sea","rank":1,"minzoom":2},"geometry":{"type":"Point","coordinates":[-52.69,56.73]}},
{"type":"Feature","properties":{"name":"Hudson Bay","kind":"bay","rank":1,"minzoom":2},"geometry":{"type":"Point","coordinates":[-84.69,59.11]}},
{"type":"Feature","properties":{"name":"Caspian Sea","kind":"sea","rank":1,"minzoom":2},"geometry":{"type":"Point","coordinates":[51.22,38.7]}},
{"type":"Feature","properties":{"name":"Baffin Bay","kind":"bay","rank":1,"minzoom":2},"geometry":{"type":"Point","coordinates":[-65.02,72.72]}},
{"type":"Feature","properties":{"name":"Gulf of Alaska","kind":"gulf","rank":1,"minzoom":2},"geometry":{"type":"Point","coordinates":[-148.47,58.11]}},
{"type":"Feature","properties":{"name":"Red Sea","kind":"sea","rank":1,"minzoom":2},"geometry":{"type":"Point","coordinates":[40.43,17.31]}},
{"type":"Feature","properties":{"name":"Sea of Okhotsk","kind":"sea","rank":1,"minzoom":2},"geometry":{"type":"Point","coordinates":[149.75,52.43]}},
{"type":"Feature","properties":{"name":"Weddell Sea","kind":"sea","rank":1,"minzoom":2},"geometry":{"type":"Point","coordinates":[-51.95,-74.58]}},
{"type":"Feature","properties":{"name":"Persian Gulf","kind":"gulf","rank":1,"minzoom":2},"geometry":{"type":"Point","coordinates":[53.08,25.49]}},
{"type":"Feature","properties":{"name":"Mediterranean Sea","kind":"sea","rank":1,"minzoom":2},"geometry":{"type":"Point","coordinates":[29.29,33.75]}},
{"type":"Feature","properties":{"name":"Ross Sea","kind":"sea","rank":1,"minzoom":2},"geometry":{"type":"Point","coordinates":[-167.21,-74.97]}},
{"type":"Feature","properties":{"name":"Coral Sea","kind":"sea","rank":1,"minzoom":2},"geometry":{"type":"Point","coordinates":[156.82,-18.59]}},
{"type":"Feature","properties":{"name":"Sea of Japan","kind":"sea","rank":1,"minzoom":2},"geometry":{"type":"Point","coordinates":[133.66,39.53]}},
{"type":"Feature","properties":{"name":"Celebes Sea","kind":"sea","rank":2,"minzoom":4},"geometry":{"type":"Point","coordinates":[122.77,3.67]}},
{"type":"Feature","properties":{"name":"Sulu Sea","kind":"sea","rank":2,"minzoom":4},"geometry":{"type":"Point","coordinates":[119.95,7.86]}},
{"type":"Feature","properties":{"name":"Norwegian Sea","kind":"sea","rank":2,"minzoom":4},"geometry":{"type":"Point","coordinates":[-0.59,66.91]}},
{"type":"Feature","properties":{"name":"Greenland Sea","kind":"sea","rank":2,"minzoom":4},"geometry":{"type":"Point","coordinates":[-10.5,74.48]}},
{"type":"Feature","properties":{"name":"Banda Sea","kind":"sea","rank":2,"minzoom":4},"geometry":{"type":"Point","coordinates":[128.36,-5.97]}},
{"type":"Feature","properties":{"name":"Luzon Strait","kind":"strait","rank":2,"minzoom":4},"geometry":{"type":"Point","coordinates":[120.87,22.06]}},
{"type":"Feature","properties":{"name":"Bay of Biscay","kind":"bay","rank":2,"minzoom":4},"geometry":{"type":"Point","coordinates":[-4.21,45.47]}},
{"type":"Feature","properties":{"name":"Mozambique Channel","kind":"channel","rank":2,"minzoom":4},"geometry":{"type":"Point","coordinates":[39.39,-21.24]}},
{"type":"Feature","properties":{"name":"Gulf of Guinea","kind":"gulf","rank":2,"minzoom":4},"geometry":{"type":"Point","coordinates":[4.62,2.84]}},
{"type":"Feature","properties":{"name":"Scotia Sea","kind":"sea","rank":2,"minzoom":4},"geometry":{"type":"Point","coordinates":[-54.83,-61.16]}},
{"type":"Feature","properties":{"name":"Baltic Sea","kind":"sea","rank":2,"minzoom":4},"geometry":{"type":"Point","coordinates":[18.99,55.89]}},
{"type":"Feature","properties":{"name":"Barents Sea","kind":"sea","rank":2,"minzoom":4},"geometry":{"type":"Point","coordinates":[40.81,73.27]}},
{"type":"Feature","properties":{"name":"North Sea","kind":"sea","rank":2,"minzoom":4},"geometry":{"type":"Point","coordinates":[3.23,56.12]}},
{"type":"Feature","properties":{"name":"Irish Sea","kind":"sea","rank":2,"minzoom":4},"geometry":{"type":"Point","coordinates":[-5.37,52.48]}},
{"type":"Feature","properties":{"name":"Java Sea","kind":"sea","rank":2,"minzoom":4},"geometry":{"type":"Point","coordinates":[109.66,-4.85]}},
{"type":"Feature","properties":{"name":"Andaman Sea","kind":"sea","rank":2,"minzoom":4},"geometry":{"type":"Point","coordinates":[95.46,9.95]}},
{"type":"Feature","properties":{"name":"Yellow Sea","kind":"sea","rank":2,"minzoom":4},"geometry":{"type":"Point","coordinates":[123.04,34.7]}},
{"type":"Feature","properties":{"name":"East China Sea","kind":"sea","rank":2,"minzoom":4},"geometry":{"type":"Point","coordinates":[126,29.84]}},
{"type":"Feature","properties":{"name":"Chukchi Sea","kind":"sea","rank":2,"minzoom":4},"geometry":{"type":"Point","coordinates":[-170.91,69.09]}},
{"type":"Feature","properties":{"name":"Bahía de Campeche","kind":"bay","rank":2,"minzoom":4},"geometry":{"type":"Point","coordinates":[-94.05,19.62]}},
{"type":"Feature","properties":{"name":"Arafura Sea","kind":"sea","rank":2,"minzoom":4},"geometry":{"type":"Point","coordinates":[135.18,-9.32]}},
{"type":"Feature","properties":{"name":"Timor Sea","kind":"sea","rank":2,"minzoom":4},"geometry":{"type":"Point","coordinates":[127.58,-11.15]}},
{"type":"Feature","properties":{"name":"Gulf of Thailand","kind":"gulf","rank":2,"minzoom":4},"geometry":{"type":"Point","coordinates":[102.22,8.99]}},
{"type":"Feature","properties":{"name":"Laccadive Sea","kind":"sea","rank":2,"minzoom":4},"geometry":{"type":"Point","coordinates":[75.35,5.73]}},
{"type":"Feature","properties":{"name":"Bellingshausen Sea","kind":"sea","rank":2,"minzoom":4},"geometry":{"type":"Point","coordinates":[-83.26,-72.1]}},
{"type":"Feature","properties":{"name":"Amundsen Sea","kind":"sea","rank":2,"minzoom":4},"geometry":{"type":"Point","coordinates":[-106.81,-74.05]}},
{"type":"Feature","properties":{"name":"Davis Strait","kind":"strait","rank":2,"minzoom":4},"geometry":{"type":"Point","coordinates":[-58.04,63.4]}},
{"type":"Feature","properties":{"name":"Kara Sea","kind":"sea","rank":2,"minzoom":4},"geometry":{"type":"Point","coordinates":[62.34,72.44]}},
{"type":"Feature","properties":{"name":"Laptev Sea","kind":"sea","rank":2,"minzoom":4},"geometry":{"type":"Point","coordinates":[120.69,75.76]}},
{"type":"Feature","properties":{"name":"Drake Passage","kind":"channel","rank":2,"minzoom":4},"geometry":{"type":"Point","coordinates":[-67.28,-55.72]}},
{"type":"Feature","properties":{"name":"Bering Sea","kind":"sea","rank":2,"minzoom":4},"geometry":{"type":"Point","coordinates":[-172.71,56.51]}},
{"type":"Feature","properties":{"name":"Sargasso Sea","kind":"sea","rank":2,"minzoom":4},"geometry":{"type":"Point","coordinates":[-58.4,27.62]}},
{"type":"Feature","properties":{"name":"Great Australian Bight","kind":"gulf","rank":3,"minzoom":5},"geometry":{"type":"Point","coordinates":[130.27,-35.06]}},
{"type":"Feature","properties":{"name":"Gulf of Aden","kind":"gulf","rank":3,"minzoom":5},"geometry":{"type":"Point","coordinates":[49.52,12.89]}},
{"type":"Feature","properties":{"name":"Gulf of Oman","kind":"gulf","rank":3,"minzoom":5},"geometry":{"type":"Point","coordinates":[59.55,24.33]}},
{"type":"Feature","properties":{"name":"Tyrrhenian Sea","kind":"sea","rank":3,"minzoom":5},"geometry":{"type":"Point","coordinates":[11.96,39.78]}},
{"type":"Feature","properties":{"name":"White Sea","kind":"sea","rank":3,"minzoom":5},"geometry":{"type":"Point","coordinates":[42.49,67.78]}},
{"type":"Feature","properties":{"name":"James Bay","kind":"bay","rank":3,"minzoom":5},"geometry":{"type":"Point","coordinates":[-80.61,53.95]}},
{"type":"Feature","properties":{"name":"Gulf of Carpentaria","kind":"gulf","rank":3,"minzoom":5},"geometry":{"type":"Point","coordinates":[139.17,-14.32]}},
{"type":"Feature","properties":{"name":"Golfo de California","kind":"gulf","rank":3,"minzoom":5},"geometry":{"type":"Point","coordinates":[-108.99,24.43]}},
{"type":"Feature","properties":{"name":"Hudson Strait","kind":"strait","rank":3,"minzoom":5},"geometry":{"type":"Point","coordinates":[-74.72,63.6]}},
{"type":"Feature","properties":{"name":"English Channel","kind":"channel","rank":3,"minzoom":5},"geometry":{"type":"Point","coordinates":[-4.24,49.49]}},
{"type":"Feature","properties":{"name":"Gulf of Honduras","kind":"gulf","rank":3,"minzoom":5},"geometry":{"type":"Point","coordinates":[-88.01,16.29]}},
{"type":"Feature","properties":{"name":"Gulf of Bothnia","kind":"gulf","rank":3,"minzoom":5},"geometry":{"type":"Point","coordinates":[19.43,61.41]}},
{"type":"Feature","properties":{"name":"Adriatic Sea","kind":"sea","rank":3,"minzoom":5},"geometry":{"type":"Point","coordinates":[17.48,41.91]}},
{"type":"Feature","properties":{"name":"Great Barrier Reef","kind":"reef","rank":4,"minzoom":5.7},"geometry":{"type":"Point","coordinates":[151.91,-21.64]}},
{"type":"Feature","properties":{"name":"Bristol Channel","kind":"channel","rank":4,"minzoom":5.7},"geometry":{"type":"Point","coordinates":[-5.31,51.16]}},
{"type":"Feature","properties":{"name":"Inner Seas","kind":"sea","rank":4,"minzoom":5.7},"geometry":{"type":"Point","coordinates":[-7.04,56.13]}},
{"type":"Feature","properties":{"name":"Gulf of Finland","kind":"gulf","rank":4,"minzoom":5.7},"geometry":{"type":"Point","coordinates":[27.14,59.97]}},
{"type":"Feature","properties":{"name":"Golfe du Lion","kind":"gulf","rank":4,"minzoom":5.7},"geometry":{"type":"Point","coordinates":[3.76,42.87]}},
{"type":"Feature","properties":{"name":"Straits of Florida","kind":"strait","rank":4,"minzoom":5.7},"geometry":{"type":"Point","coordinates":[-79.3,25.56]}},
{"type":"Feature","properties":{"name":"Bay of Plenty","kind":"bay","rank":4,"minzoom":5.7},"geometry":{"type":"Point","coordinates":[177,-37.55]}},
{"type":"Feature","properties":{"name":"The North Western Passages","kind":"channel","rank":4,"minzoom":5},"geometry":{"type":"Point","coordinates":[-102.92,74.21]}},
{"type":"Feature","properties":{"name":"Ionian Sea","kind":"sea","rank":4,"minzoom":5.7},"geometry":{"type":"Point","coordinates":[18.52,38]}},
{"type":"Feature","properties":{"name":"Gulf of Saint Lawrence","kind":"gulf","rank":4,"minzoom":5.7},"geometry":{"type":"Point","coordinates":[-60.22,49.25]}},
{"type":"Feature","properties":{"name":"Molucca Sea","kind":"sea","rank":4,"minzoom":5.7},"geometry":{"type":"Point","coordinates":[125.66,-0.33]}},
{"type":"Feature","properties":{"name":"Bismarck Sea","kind":"sea","rank":4,"minzoom":5.7},"geometry":{"type":"Point","coordinates":[148.07,-3.81]}},
{"type":"Feature","properties":{"name":"Solomon Sea","kind":"sea","rank":4,"minzoom":5.7},"geometry":{"type":"Point","coordinates":[155.14,-9.44]}},
{"type":"Feature","properties":{"name":"Gulf of Tonkin","kind":"gulf","rank":4,"minzoom":5.7},"geometry":{"type":"Point","coordinates":[107.39,19.41]}},
{"type":"Feature","properties":{"name":"Bay of Fundy","kind":"bay","rank":4,"minzoom":5.7},"geometry":{"type":"Point","coordinates":[-66.49,44.75]}},
{"type":"Feature","properties":{"name":"Río de la Plata","kind":"gulf","rank":4,"minzoom":5.7},"geometry":{"type":"Point","coordinates":[-56.5,-35.42]}},
{"type":"Feature","properties":{"name":"Strait of Malacca","kind":"strait","rank":4,"minzoom":5.7},"geometry":{"type":"Point","coordinates":[98.53,6.18]}},
{"type":"Feature","properties":{"name":"Strait of Singapore","kind":"strait","rank":4,"minzoom":5.7},"geometry":{"type":"Point","coordinates":[103.58,1.2]}},
{"type":"Feature","properties":{"name":"Makassar Strait","kind":"strait","rank":4,"minzoom":5.7},"geometry":{"type":"Point","coordinates":[117.57,-3.21]}},
{"type":"Feature","properties":{"name":"Ceram Sea","kind":"sea","rank":4,"minzoom":5.7},"geometry":{"type":"Point","coordinates":[131.15,-2.47]}},
{"type":"Feature","properties":{"name":"Inner Sea","kind":"sea","rank":4,"minzoom":5.7},"geometry":{"type":"Point","coordinates":[134.48,34.49]}},
{"type":"Feature","properties":{"name":"Taiwan Strait","kind":"strait","rank":4,"minzoom":5.7},"geometry":{"type":"Point","coordinates":[119.4,24.15]}},
{"type":"Feature","properties":{"name":"Cook Inlet","kind":"bay","rank":4,"minzoom":5.7},"geometry":{"type":"Point","coordinates":[-153.12,59.34]}},
{"type":"Feature","properties":{"name":"Bristol Bay","kind":"bay","rank":4,"minzoom":5.7},"geometry":{"type":"Point","coordinates":[-160.07,57.65]}},
{"type":"Feature","properties":{"name":"Melville Bay","kind":"bay","rank":4,"minzoom":5.7},"geometry":{"type":"Point","coordinates":[-59.82,75.29]}},
{"type":"Feature","properties":{"name":"Gulf of Maine","kind":"gulf","rank":4,"minzoom":5.7},"geometry":{"type":"Point","coordinates":[-69.36,42.97]}},
{"type":"Feature","properties":{"name":"Chesapeake Bay","kind":"bay","rank":4,"minzoom":5.7},"geometry":{"type":"Point","coordinates":[-76.02,37.82]}},
{"type":"Feature","properties":{"name":"Strait of Gibraltar","kind":"strait","rank":4,"minzoom":5.7},"geometry":{"type":"Point","coordinates":[-5.8,35.81]}},
{"type":"Feature","properties":{"name":"Golfo San Jorge","kind":"gulf","rank":4,"minzoom":5.7},"geometry":{"type":"Point","coordinates":[-66.66,-46.17]}},
{"type":"Feature","properties":{"name":"Balearic Sea","kind":"sea","rank":4,"minzoom":5.7},"geometry":{"type":"Point","coordinates":[1.92,40.4]}},
{"type":"Feature","properties":{"name":"Aegean Sea","kind":"sea","rank":4,"minzoom":5.7},"geometry":{"type":"Point","coordinates":[24.9,39.09]}},
{"type":"Feature","properties":{"name":"Gulf of Mannar","kind":"gulf","rank":4,"minzoom":5.7},"geometry":{"type":"Point","coordinates":[78.96,8.44]}},
{"type":"Feature","properties":{"name":"Shelikhova Gulf","kind":"gulf","rank":4,"minzoom":5.7},"geometry":{"type":"Point","coordinates":[157.7,59.85]}},
{"type":"Feature","properties":{"name":"Bo Hai","kind":"sea","rank":4,"minzoom":5.7},"geometry":{"type":"Point","coordinates":[119.91,38.58]}},
{"type":"Feature","properties":{"name":"Gulf of Kutch","kind":"gulf","rank":4,"minzoom":5.7},"geometry":{"type":"Point","coordinates":[69.33,22.57]}},
{"type":"Feature","properties":{"name":"Golfo de Panamá","kind":"gulf","rank":4,"minzoom":5.7},"geometry":{"type":"Point","coordinates":[-79.16,8.2]}},
{"type":"Feature","properties":{"name":"Amundsen Gulf","kind":"gulf","rank":4,"minzoom":5},"geometry":{"type":"Point","coordinates":[-120.14,70.55]}},
{"type":"Feature","properties":{"name":"Viscount Melville Sound","kind":"sound","rank":4,"minzoom":5},"geometry":{"type":"Point","coordinates":[-109.56,73.91]}},
{"type":"Feature","properties":{"name":"Ungava Bay","kind":"bay","rank":4,"minzoom":5.7},"geometry":{"type":"Point","coordinates":[-67.32,59.51]}},
{"type":"Feature","properties":{"name":"Great Barrier Reef","kind":"reef","rank":4,"minzoom":5.7},"geometry":{"type":"Point","coordinates":[152.92,-25.5]}},
{"type":"Feature","properties":{"name":"Amazon River","kind":"river","rank":4,"minzoom":5.7},"geometry":{"type":"Point","coordinates":[-50.98,-0.58]}},
{"type":"Feature","properties":{"name":"Yangtze River","kind":"river","rank":4,"minzoom":5.7},"geometry":{"type":"Point","coordinates":[121.79,31.35]}},
{"type":"Feature","properties":{"name":"Columbia River","kind":"river","rank":4,"minzoom":5.7},"geometry":{"type":"Point","coordinates":[-123.78,46.23]}},
{"type":"Feature","properties":{"name":"Korea Strait","kind":"strait","rank":4,"minzoom":5.7},"geometry":{"type":"Point","coordinates":[128.15,33.7]}}
]}
