{"type":"FeatureCollection","features":[
{"type":"Feature","properties":{"name":"Niagara Falls","kind":"waterfall","rank":2,"minzoom":5},"geometry":{"type":"Point","coordinates":[-79.044,43.088]}},
{"type":"Feature","properties":{"name":"Salto Angel","kind":"waterfall","rank":2,"minzoom":5},"geometry":{"type":"Point","coordinates":[-62.062,5.687]}},
{"type":"Feature","properties":{"name":"Iguazu Falls","kind":"waterfall","rank":2,"minzoom":5},"geometry":{"type":"Point","coordinates":[-54.583,-25.568]}},
{"type":"Feature","properties":{"name":"Gees Gwardafuy","kind":"cape","rank":3,"minzoom":5.1},"geometry":{"type":"Point","coordinates":[51.258,11.822]}},
{"type":"Feature","properties":{"name":"Victoria Falls","kind":"waterfall","rank":3,"minzoom":5.1},"geometry":{"type":"Point","coordinates":[25.853,-17.928]}},
{"type":"Feature","properties":{"name":"Wright Island","kind":"island","rank":3,"minzoom":5.1},"geometry":{"type":"Point","coordinates":[-116.893,-74.067]}},
{"type":"Feature","properties":{"name":"Grant Island","kind":"island","rank":3,"minzoom":5.1},"geometry":{"type":"Point","coordinates":[-131.485,-74.483]}},
{"type":"Feature","properties":{"name":"Newman Island","kind":"island","rank":3,"minzoom":5.1},"geometry":{"type":"Point","coordinates":[-145.687,-75.592]}},
{"type":"Feature","properties":{"name":"Dean Island","kind":"island","rank":3,"minzoom":5.1},"geometry":{"type":"Point","coordinates":[-127.634,-74.501]}},
{"type":"Feature","properties":{"name":"Cape Canaveral","kind":"cape","rank":3,"minzoom":5.1},"geometry":{"type":"Point","coordinates":[-80.536,28.473]}},
{"type":"Feature","properties":{"name":"Cape Mendocino","kind":"cape","rank":3,"minzoom":5.1},"geometry":{"type":"Point","coordinates":[-124.392,40.442]}},
{"type":"Feature","properties":{"name":"Cabo San Lucas","kind":"cape","rank":3,"minzoom":5.1},"geometry":{"type":"Point","coordinates":[-109.97,22.888]}},
{"type":"Feature","properties":{"name":"Cape Churchill","kind":"cape","rank":3,"minzoom":5.1},"geometry":{"type":"Point","coordinates":[-93.182,58.752]}},
{"type":"Feature","properties":{"name":"Cape Cod","kind":"cape","rank":3,"minzoom":5.1},"geometry":{"type":"Point","coordinates":[-70.037,41.991]}},
{"type":"Feature","properties":{"name":"Cape May","kind":"cape","rank":3,"minzoom":5.1},"geometry":{"type":"Point","coordinates":[-74.951,38.93]}},
{"type":"Feature","properties":{"name":"Cabo de Hornos","kind":"cape","rank":3,"minzoom":5.1},"geometry":{"type":"Point","coordinates":[-67.169,-55.863]}},
{"type":"Feature","properties":{"name":"Cape of Good Hope","kind":"cape","rank":3,"minzoom":5.1},"geometry":{"type":"Point","coordinates":[18.441,-34.307]}},
{"type":"Feature","properties":{"name":"Cape Palmas","kind":"cape","rank":3,"minzoom":5.1},"geometry":{"type":"Point","coordinates":[-7.457,4.374]}},
{"type":"Feature","properties":{"name":"Cape Verde","kind":"cape","rank":3,"minzoom":5.1},"geometry":{"type":"Point","coordinates":[-17.472,14.732]}},
{"type":"Feature","properties":{"name":"Cap Bon","kind":"cape","rank":3,"minzoom":5.1},"geometry":{"type":"Point","coordinates":[11.024,37.074]}},
{"type":"Feature","properties":{"name":"Oceanic pole of inaccessibility","kind":"pole","rank":3,"minzoom":5.1},"geometry":{"type":"Point","coordinates":[-123.402,-48.865]}},
{"type":"Feature","properties":{"name":"South Magnetic Pole 2005 (est)","kind":"pole","rank":3,"minzoom":5.1},"geometry":{"type":"Point","coordinates":[137.854,-64.518]}},
{"type":"Feature","properties":{"name":"North Magnetic Pole 2005 (est)","kind":"pole","rank":3,"minzoom":5.1},"geometry":{"type":"Point","coordinates":[-114.406,82.71]}},
{"type":"Feature","properties":{"name":"Lands End","kind":"cape","rank":4,"minzoom":5.7},"geometry":{"type":"Point","coordinates":[-5.669,50.07]}},
{"type":"Feature","properties":{"name":"Cape York","kind":"cape","rank":4,"minzoom":5.7},"geometry":{"type":"Point","coordinates":[-68.219,76.219]}},
{"type":"Feature","properties":{"name":"Nunap Isua","kind":"cape","rank":4,"minzoom":5.7},"geometry":{"type":"Point","coordinates":[-43.901,59.863]}},
{"type":"Feature","properties":{"name":"Cape Vohimena","kind":"cape","rank":4,"minzoom":5.7},"geometry":{"type":"Point","coordinates":[45.159,-25.546]}},
{"type":"Feature","properties":{"name":"Vavau","kind":"island","rank":4,"minzoom":5.7},"geometry":{"type":"Point","coordinates":[-173.977,-18.59]}},
{"type":"Feature","properties":{"name":"I. de Pascua","kind":"island","rank":4,"minzoom":5.7},"geometry":{"type":"Point","coordinates":[-109.368,-27.102]}},
{"type":"Feature","properties":{"name":"Cape Agulhas","kind":"cape","rank":4,"minzoom":5.7},"geometry":{"type":"Point","coordinates":[19.993,-34.801]}},
{"type":"Feature","properties":{"name":"Plain of Jars","kind":"plain","rank":4,"minzoom":5.7},"geometry":{"type":"Point","coordinates":[101.891,20.551]}},
{"type":"Feature","properties":{"name":"Cabo Corrientes","kind":"cape","rank":4,"minzoom":5.7},"geometry":{"type":"Point","coordinates":[-105.678,20.42]}},
{"type":"Feature","properties":{"name":"Pt. Eugenia","kind":"cape","rank":4,"minzoom":5.7},"geometry":{"type":"Point","coordinates":[-115.046,27.843]}},
{"type":"Feature","properties":{"name":"Point Conception","kind":"cape","rank":4,"minzoom":5.7},"geometry":{"type":"Point","coordinates":[-120.464,34.46]}},
{"type":"Feature","properties":{"name":"Cape Hatteras","kind":"cape","rank":4,"minzoom":5.7},"geometry":{"type":"Point","coordinates":[-75.54,35.245]}},
{"type":"Feature","properties":{"name":"Cape Sable","kind":"cape","rank":4,"minzoom":5.7},"geometry":{"type":"Point","coordinates":[-81.09,25.125]}},
{"type":"Feature","properties":{"name":"Cape Hope","kind":"cape","rank":4,"minzoom":5.7},"geometry":{"type":"Point","coordinates":[-166.813,68.354]}},
{"type":"Feature","properties":{"name":"Point Barrow","kind":"cape","rank":4,"minzoom":5.7},"geometry":{"type":"Point","coordinates":[-156.472,71.406]}},
{"type":"Feature","properties":{"name":"Punta Negra","kind":"cape","rank":4,"minzoom":5.7},"geometry":{"type":"Point","coordinates":[-81.108,-5.949]}},
{"type":"Feature","properties":{"name":"Punta Lavapié","kind":"cape","rank":4,"minzoom":5.7},"geometry":{"type":"Point","coordinates":[-73.603,-37.171]}},
{"type":"Feature","properties":{"name":"Punta Galera","kind":"cape","rank":4,"minzoom":5.7},"geometry":{"type":"Point","coordinates":[-80.062,0.731]}},
{"type":"Feature","properties":{"name":"Cap Lopez","kind":"cape","rank":4,"minzoom":5.7},"geometry":{"type":"Point","coordinates":[8.727,-0.615]}},
{"type":"Feature","properties":{"name":"Cape Bobaomby","kind":"cape","rank":4,"minzoom":5.7},"geometry":{"type":"Point","coordinates":[49.263,-11.966]}},
{"type":"Feature","properties":{"name":"Cap Blanc","kind":"cape","rank":4,"minzoom":5.7},"geometry":{"type":"Point","coordinates":[-17.053,20.822]}},
{"type":"Feature","properties":{"name":"South West Cape","kind":"cape","rank":5,"minzoom":6},"geometry":{"type":"Point","coordinates":[146.034,-43.54]}},
{"type":"Feature","properties":{"name":"Cape Howe","kind":"cape","rank":5,"minzoom":6},"geometry":{"type":"Point","coordinates":[149.958,-37.489]}},
{"type":"Feature","properties":{"name":"Cape Otway","kind":"cape","rank":5,"minzoom":6},"geometry":{"type":"Point","coordinates":[143.537,-38.855]}},
{"type":"Feature","properties":{"name":"Cape Jaffa","kind":"cape","rank":5,"minzoom":6},"geometry":{"type":"Point","coordinates":[139.681,-36.956]}},
{"type":"Feature","properties":{"name":"Cape Carnot","kind":"cape","rank":5,"minzoom":6},"geometry":{"type":"Point","coordinates":[135.654,-34.939]}},
{"type":"Feature","properties":{"name":"Cape Byron","kind":"cape","rank":5,"minzoom":6},"geometry":{"type":"Point","coordinates":[153.628,-28.662]}},
{"type":"Feature","properties":{"name":"Cape Manifold","kind":"cape","rank":5,"minzoom":6},"geometry":{"type":"Point","coordinates":[150.811,-22.702]}},
{"type":"Feature","properties":{"name":"Cape York","kind":"cape","rank":5,"minzoom":6},"geometry":{"type":"Point","coordinates":[142.522,-10.711]}},
{"type":"Feature","properties":{"name":"Cape Melville","kind":"cape","rank":5,"minzoom":6},"geometry":{"type":"Point","coordinates":[144.507,-14.164]}},
{"type":"Feature","properties":{"name":"Cape Arnhem","kind":"cape","rank":5,"minzoom":6},"geometry":{"type":"Point","coordinates":[136.915,-12.296]}},
{"type":"Feature","properties":{"name":"West Cape Howe","kind":"cape","rank":5,"minzoom":6},"geometry":{"type":"Point","coordinates":[117.597,-35.104]}},
{"type":"Feature","properties":{"name":"Cape Leeuwin","kind":"cape","rank":5,"minzoom":6},"geometry":{"type":"Point","coordinates":[115.128,-34.328]}},
{"type":"Feature","properties":{"name":"Cape Pasley","kind":"cape","rank":5,"minzoom":6},"geometry":{"type":"Point","coordinates":[123.517,-33.929]}},
{"type":"Feature","properties":{"name":"Cape Londonderry","kind":"cape","rank":5,"minzoom":6},"geometry":{"type":"Point","coordinates":[126.941,-13.743]}},
{"type":"Feature","properties":{"name":"Steep Point","kind":"cape","rank":5,"minzoom":6},"geometry":{"type":"Point","coordinates":[113.145,-26.157]}},
{"type":"Feature","properties":{"name":"North West Cape","kind":"cape","rank":5,"minzoom":6},"geometry":{"type":"Point","coordinates":[114.16,-21.801]}},
{"type":"Feature","properties":{"name":"Cabo Gracias a Dios","kind":"cape","rank":5,"minzoom":6},"geometry":{"type":"Point","coordinates":[-83.159,14.994]}},
{"type":"Feature","properties":{"name":"Cape Brewster","kind":"cape","rank":5,"minzoom":6},"geometry":{"type":"Point","coordinates":[-22.123,70.151]}},
{"type":"Feature","properties":{"name":"Cape Morris Jesup","kind":"cape","rank":5,"minzoom":6},"geometry":{"type":"Point","coordinates":[-32.492,83.626]}},
{"type":"Feature","properties":{"name":"Grímsey","kind":"island","rank":5,"minzoom":6},"geometry":{"type":"Point","coordinates":[-18.251,66.669]}},
{"type":"Feature","properties":{"name":"Surtsey","kind":"island","rank":5,"minzoom":6},"geometry":{"type":"Point","coordinates":[-20.435,63.218]}},
{"type":"Feature","properties":{"name":"Cap Est","kind":"cape","rank":5,"minzoom":6},"geometry":{"type":"Point","coordinates":[50.5,-15.275]}},
{"type":"Feature","properties":{"name":"Cape Cretin","kind":"cape","rank":5,"minzoom":6},"geometry":{"type":"Point","coordinates":[147.852,-6.637]}},
{"type":"Feature","properties":{"name":"Îles Chesterfield","kind":"island","rank":5,"minzoom":6},"geometry":{"type":"Point","coordinates":[159.952,-19.205]}},
{"type":"Feature","properties":{"name":"Pagan","kind":"island","rank":5,"minzoom":6},"geometry":{"type":"Point","coordinates":[145.785,18.12]}},
{"type":"Feature","properties":{"name":"Wake I.","kind":"island","rank":5,"minzoom":6},"geometry":{"type":"Point","coordinates":[166.636,19.304]}},
{"type":"Feature","properties":{"name":"Tabiteuea","kind":"island","rank":5,"minzoom":6},"geometry":{"type":"Point","coordinates":[174.755,-1.201]}},
{"type":"Feature","properties":{"name":"Aranuka","kind":"island","rank":5,"minzoom":6},"geometry":{"type":"Point","coordinates":[173.626,0.227]}},
{"type":"Feature","properties":{"name":"Nauru","kind":"island","rank":5,"minzoom":6},"geometry":{"type":"Point","coordinates":[166.931,-0.506]}},
{"type":"Feature","properties":{"name":"Ebon","kind":"island","rank":5,"minzoom":6},"geometry":{"type":"Point","coordinates":[168.736,4.6]}},
{"type":"Feature","properties":{"name":"Jaluit","kind":"island","rank":5,"minzoom":6},"geometry":{"type":"Point","coordinates":[169.683,5.964]}},
{"type":"Feature","properties":{"name":"Mili","kind":"island","rank":5,"minzoom":6},"geometry":{"type":"Point","coordinates":[171.726,6.107]}},
{"type":"Feature","properties":{"name":"Majuro","kind":"island","rank":5,"minzoom":6},"geometry":{"type":"Point","coordinates":[171.16,7.118]}},
{"type":"Feature","properties":{"name":"Ailinglapalap","kind":"island","rank":5,"minzoom":6},"geometry":{"type":"Point","coordinates":[168.597,7.276]}},
{"type":"Feature","properties":{"name":"Kwajalein","kind":"island","rank":5,"minzoom":6},"geometry":{"type":"Point","coordinates":[167.735,8.747]}},
{"type":"Feature","properties":{"name":"Rongelap","kind":"island","rank":5,"minzoom":6},"geometry":{"type":"Point","coordinates":[166.87,11.164]}},
{"type":"Feature","properties":{"name":"Bikini","kind":"island","rank":5,"minzoom":6},"geometry":{"type":"Point","coordinates":[165.55,11.639]}},
{"type":"Feature","properties":{"name":"Cape Reinga","kind":"cape","rank":5,"minzoom":6},"geometry":{"type":"Point","coordinates":[172.706,-34.42]}},
{"type":"Feature","properties":{"name":"Kanton Island","kind":"island","rank":5,"minzoom":6},"geometry":{"type":"Point","coordinates":[-171.717,-2.757]}},
{"type":"Feature","properties":{"name":"Tabuaeran","kind":"island","rank":5,"minzoom":6},"geometry":{"type":"Point","coordinates":[-159.327,3.867]}},
{"type":"Feature","properties":{"name":"Malden Island","kind":"island","rank":5,"minzoom":6},"geometry":{"type":"Point","coordinates":[-154.984,-4.043]}},
{"type":"Feature","properties":{"name":"Rarotonga","kind":"island","rank":5,"minzoom":6},"geometry":{"type":"Point","coordinates":[-159.798,-21.202]}},
{"type":"Feature","properties":{"name":"Rangiroa","kind":"island","rank":5,"minzoom":6},"geometry":{"type":"Point","coordinates":[-147.774,-15.205]}},
{"type":"Feature","properties":{"name":"Funafuti","kind":"island","rank":5,"minzoom":6},"geometry":{"type":"Point","coordinates":[179.198,-8.492]}},
{"type":"Feature","properties":{"name":"Saint Croix","kind":"island","rank":5,"minzoom":6},"geometry":{"type":"Point","coordinates":[-64.763,17.763]}},
{"type":"Feature","properties":{"name":"Grand Cayman","kind":"island","rank":5,"minzoom":6},"geometry":{"type":"Point","coordinates":[-81.272,19.316]}},
{"type":"Feature","properties":{"name":"San Salvador","kind":"island","rank":5,"minzoom":6},"geometry":{"type":"Point","coordinates":[-74.493,24.053]}},
{"type":"Feature","properties":{"name":"Grenada","kind":"island","rank":5,"minzoom":6},"geometry":{"type":"Point","coordinates":[-61.723,12.106]}},
{"type":"Feature","properties":{"name":"Barbuda","kind":"island","rank":5,"minzoom":6},"geometry":{"type":"Point","coordinates":[-61.789,17.623]}},
{"type":"Feature","properties":{"name":"Antigua","kind":"island","rank":5,"minzoom":6},"geometry":{"type":"Point","coordinates":[-61.776,17.041]}},
{"type":"Feature","properties":{"name":"Guadeloupe","kind":"island","rank":5,"minzoom":6},"geometry":{"type":"Point","coordinates":[-61.657,16.181]}},
{"type":"Feature","properties":{"name":"Dominica","kind":"island","rank":5,"minzoom":6},"geometry":{"type":"Point","coordinates":[-61.353,15.453]}},
{"type":"Feature","properties":{"name":"Martinique","kind":"island","rank":5,"minzoom":6},"geometry":{"type":"Point","coordinates":[-61.009,14.672]}},
{"type":"Feature","properties":{"name":"Saint Lucia","kind":"island","rank":5,"minzoom":6},"geometry":{"type":"Point","coordinates":[-60.982,13.918]}},
{"type":"Feature","properties":{"name":"Saint Vincent","kind":"island","rank":5,"minzoom":6},"geometry":{"type":"Point","coordinates":[-61.207,13.27]}},
{"type":"Feature","properties":{"name":"Barbados","kind":"island","rank":5,"minzoom":6},"geometry":{"type":"Point","coordinates":[-59.567,13.164]}},
{"type":"Feature","properties":{"name":"Tobago","kind":"island","rank":5,"minzoom":6},"geometry":{"type":"Point","coordinates":[-60.678,11.259]}},
{"type":"Feature","properties":{"name":"Margarita","kind":"island","rank":5,"minzoom":6},"geometry":{"type":"Point","coordinates":[-64.051,10.982]}},
{"type":"Feature","properties":{"name":"Curaçao","kind":"island","rank":5,"minzoom":6},"geometry":{"type":"Point","coordinates":[-68.999,12.185]}},
{"type":"Feature","properties":{"name":"Aruba","kind":"island","rank":5,"minzoom":6},"geometry":{"type":"Point","coordinates":[-69.965,12.503]}},
{"type":"Feature","properties":{"name":"Ra’s Banäs","kind":"cape","rank":5,"minzoom":6},"geometry":{"type":"Point","coordinates":[35.778,23.951]}},
{"type":"Feature","properties":{"name":"Ponta das Salinas","kind":"cape","rank":5,"minzoom":6},"geometry":{"type":"Point","coordinates":[12.969,-12.856]}},
{"type":"Feature","properties":{"name":"Ponta das Palmeirinhas","kind":"cape","rank":5,"minzoom":6},"geometry":{"type":"Point","coordinates":[13.034,-9.1]}},
{"type":"Feature","properties":{"name":"Cabo Bojador","kind":"cape","rank":5,"minzoom":6},"geometry":{"type":"Point","coordinates":[-14.473,26.158]}},
{"type":"Feature","properties":{"name":"Cape Comorin","kind":"cape","rank":5,"minzoom":6},"geometry":{"type":"Point","coordinates":[77.512,8.085]}},
{"type":"Feature","properties":{"name":"Dondra Head","kind":"cape","rank":5,"minzoom":6},"geometry":{"type":"Point","coordinates":[80.592,5.93]}},
{"type":"Feature","properties":{"name":"Cape Yelizavety","kind":"cape","rank":5,"minzoom":6},"geometry":{"type":"Point","coordinates":[142.721,54.416]}},
{"type":"Feature","properties":{"name":"Pt. Yuzhnyy","kind":"cape","rank":5,"minzoom":6},"geometry":{"type":"Point","coordinates":[156.797,57.733]}},
{"type":"Feature","properties":{"name":"Cape Sata","kind":"cape","rank":5,"minzoom":6},"geometry":{"type":"Point","coordinates":[130.695,31.027]}},
{"type":"Feature","properties":{"name":"Cape Aniva","kind":"cape","rank":5,"minzoom":6},"geometry":{"type":"Point","coordinates":[143.435,46.082]}},
{"type":"Feature","properties":{"name":"Cape Terpeniya","kind":"cape","rank":5,"minzoom":6},"geometry":{"type":"Point","coordinates":[144.713,48.669]}},
{"type":"Feature","properties":{"name":"Cape Lopatka","kind":"cape","rank":5,"minzoom":6},"geometry":{"type":"Point","coordinates":[156.652,50.914]}},
{"type":"Feature","properties":{"name":"Cape Ozernoy","kind":"cape","rank":5,"minzoom":6},"geometry":{"type":"Point","coordinates":[163.247,57.771]}},
{"type":"Feature","properties":{"name":"Cape Olyutorskiy","kind":"cape","rank":5,"minzoom":6},"geometry":{"type":"Point","coordinates":[170.313,59.961]}},
{"type":"Feature","properties":{"name":"Cape Navarin","kind":"cape","rank":5,"minzoom":6},"geometry":{"type":"Point","coordinates":[179.074,62.327]}},
{"type":"Feature","properties":{"name":"Cape Lopatka","kind":"cape","rank":5,"minzoom":6},"geometry":{"type":"Point","coordinates":[150.066,71.908]}},
{"type":"Feature","properties":{"name":"Cape Ince","kind":"cape","rank":5,"minzoom":6},"geometry":{"type":"Point","coordinates":[34.983,42.084]}},
{"type":"Feature","properties":{"name":"Ra’s Fartak","kind":"cape","rank":5,"minzoom":6},"geometry":{"type":"Point","coordinates":[52.239,15.658]}},
{"type":"Feature","properties":{"name":"Ras Sharbatat","kind":"cape","rank":5,"minzoom":6},"geometry":{"type":"Point","coordinates":[56.558,18.167]}},
{"type":"Feature","properties":{"name":"Ra's al Had","kind":"cape","rank":5,"minzoom":6},"geometry":{"type":"Point","coordinates":[59.8,22.519]}},
{"type":"Feature","properties":{"name":"Hachijō-jima","kind":"island","rank":5,"minzoom":6},"geometry":{"type":"Point","coordinates":[139.805,33.11]}},
{"type":"Feature","properties":{"name":"Nordkapp","kind":"cape","rank":5,"minzoom":6},"geometry":{"type":"Point","coordinates":[25.661,71.155]}},
{"type":"Feature","properties":{"name":"Cabo de São Vicente","kind":"cape","rank":5,"minzoom":6},"geometry":{"type":"Point","coordinates":[-8.969,37.038]}},
{"type":"Feature","properties":{"name":"Cabo Fisterra","kind":"cape","rank":5,"minzoom":6},"geometry":{"type":"Point","coordinates":[-9.27,42.929]}},
{"type":"Feature","properties":{"name":"Cape San Blas","kind":"cape","rank":5,"minzoom":6},"geometry":{"type":"Point","coordinates":[-85.271,29.714]}},
{"type":"Feature","properties":{"name":"Cape Sable","kind":"cape","rank":5,"minzoom":6},"geometry":{"type":"Point","coordinates":[-65.611,43.469]}},
{"type":"Feature","properties":{"name":"Cape Bauld","kind":"cape","rank":5,"minzoom":6},"geometry":{"type":"Point","coordinates":[-55.43,51.568]}},
{"type":"Feature","properties":{"name":"Cape Fear","kind":"cape","rank":5,"minzoom":6},"geometry":{"type":"Point","coordinates":[-77.991,33.868]}},
{"type":"Feature","properties":{"name":"I. Guadalupe","kind":"island","rank":5,"minzoom":6},"geometry":{"type":"Point","coordinates":[-118.317,29.052]}},
{"type":"Feature","properties":{"name":"Miquelon","kind":"island","rank":5,"minzoom":6},"geometry":{"type":"Point","coordinates":[-56.33,46.929]}},
{"type":"Feature","properties":{"name":"I. Robinson Crusoe","kind":"island","rank":5,"minzoom":6},"geometry":{"type":"Point","coordinates":[-78.873,-33.59]}},
{"type":"Feature","properties":{"name":"Cabo Orange","kind":"cape","rank":5,"minzoom":6},"geometry":{"type":"Point","coordinates":[-51.263,4.136]}},
{"type":"Feature","properties":{"name":"Cabo de Santa Marta Grande","kind":"cape","rank":5,"minzoom":6},"geometry":{"type":"Point","coordinates":[-48.803,-28.572]}},
{"type":"Feature","properties":{"name":"Punta del Este","kind":"cape","rank":5,"minzoom":6},"geometry":{"type":"Point","coordinates":[-54.946,-34.967]}},
{"type":"Feature","properties":{"name":"Cabo San Antonio","kind":"cape","rank":5,"minzoom":6},"geometry":{"type":"Point","coordinates":[-56.717,-36.41]}},
{"type":"Feature","properties":{"name":"Cabo Corrientes","kind":"cape","rank":5,"minzoom":6},"geometry":{"type":"Point","coordinates":[-57.563,-38.066]}},
{"type":"Feature","properties":{"name":"Punta Rasa","kind":"cape","rank":5,"minzoom":6},"geometry":{"type":"Point","coordinates":[-62.259,-40.726]}},
{"type":"Feature","properties":{"name":"Cabo Dos Bahías","kind":"cape","rank":5,"minzoom":6},"geometry":{"type":"Point","coordinates":[-65.544,-44.894]}},
{"type":"Feature","properties":{"name":"Cabo Delgado","kind":"cape","rank":5,"minzoom":6},"geometry":{"type":"Point","coordinates":[40.624,-10.67]}},
{"type":"Feature","properties":{"name":"Ponta da Barra","kind":"cape","rank":5,"minzoom":6},"geometry":{"type":"Point","coordinates":[35.516,-23.83]}},
{"type":"Feature","properties":{"name":"Ponta São Sebastio","kind":"cape","rank":5,"minzoom":6},"geometry":{"type":"Point","coordinates":[35.48,-22.119]}},
{"type":"Feature","properties":{"name":"Ras Cantin","kind":"cape","rank":5,"minzoom":6},"geometry":{"type":"Point","coordinates":[-9.274,32.582]}},
{"type":"Feature","properties":{"name":"Ra’s Kasr","kind":"cape","rank":5,"minzoom":6},"geometry":{"type":"Point","coordinates":[38.58,18.075]}},
{"type":"Feature","properties":{"name":"Ponta de Jericoacoara","kind":"cape","rank":5,"minzoom":6},"geometry":{"type":"Point","coordinates":[-39.992,-2.852]}},
{"type":"Feature","properties":{"name":"Cabo de São Roque","kind":"cape","rank":5,"minzoom":6},"geometry":{"type":"Point","coordinates":[-35.51,-5.157]}},
{"type":"Feature","properties":{"name":"Ponta da Baleia","kind":"cape","rank":5,"minzoom":6},"geometry":{"type":"Point","coordinates":[-39.146,-17.679]}},
{"type":"Feature","properties":{"name":"Cabo de São Tomé","kind":"cape","rank":5,"minzoom":6},"geometry":{"type":"Point","coordinates":[-40.988,-21.972]}},
{"type":"Feature","properties":{"name":"Cabo Frio","kind":"cape","rank":5,"minzoom":6},"geometry":{"type":"Point","coordinates":[-41.89,-22.76]}},
{"type":"Feature","properties":{"name":"Cabo San Diego","kind":"cape","rank":5,"minzoom":6},"geometry":{"type":"Point","coordinates":[-65.214,-54.641]}},
{"type":"Feature","properties":{"name":"Cabo Tres Puntas","kind":"cape","rank":5,"minzoom":6},"geometry":{"type":"Point","coordinates":[-65.744,-47.329]}},
{"type":"Feature","properties":{"name":"Cap Saint André","kind":"cape","rank":5,"minzoom":6},"geometry":{"type":"Point","coordinates":[44.467,-16.174]}},
{"type":"Feature","properties":{"name":"Cape St. Lucia","kind":"cape","rank":5,"minzoom":6},"geometry":{"type":"Point","coordinates":[32.367,-28.553]}},
{"type":"Feature","properties":{"name":"Cape St. Francis","kind":"cape","rank":5,"minzoom":6},"geometry":{"type":"Point","coordinates":[24.841,-34.189]}},
{"type":"Feature","properties":{"name":"Minamitori-shima","kind":"island","rank":5,"minzoom":6},"geometry":{"type":"Point","coordinates":[153.959,24.32]}},
{"type":"Feature","properties":{"name":"Islas de Martín Vaz","kind":"island","rank":5,"minzoom":6},"geometry":{"type":"Point","coordinates":[-29.338,-20.56]}},
{"type":"Feature","properties":{"name":"Rockall","kind":"island","rank":5,"minzoom":6},"geometry":{"type":"Point","coordinates":[-12.409,58.163]}},
{"type":"Feature","properties":{"name":"I. de Cozumel","kind":"island","rank":5,"minzoom":6},"geometry":{"type":"Point","coordinates":[-86.881,20.445]}},
{"type":"Feature","properties":{"name":"Bermuda Islands","kind":"island","rank":5,"minzoom":6},"geometry":{"type":"Point","coordinates":[-64.743,32.317]}}
]}
